{"type":"FeatureCollection","features":[{"type":"Feature","id":12035527,"geometry":{"type":"LineString","coordinates":[[-81.725139,35.218582],[-81.722811,35.217133],[-81.719978,35.216109],[-81.717399,35.215523],[-81.714606,35.215182],[-81.713202,35.214604],[-81.709821,35.214258]]},"properties":{"stream_order":6,"shape_length":0.016129808518175626}},{"type":"Feature","id":12035387,"geometry":{"type":"LineString","coordinates":[[-81.940347,35.284109],[-81.940095,35.283559],[-81.939927,35.282689],[-81.93976,35.282437],[-81.939675,35.281086],[-81.939563,35.280765],[-81.939087,35.280124],[-81.939059,35.279437],[-81.939226,35.279048],[-81.940119,35.278085],[-81.940342,35.277421],[-81.940537,35.277123],[-81.94104,35.276711],[-81.94291,35.275816],[-81.943747,35.275152],[-81.943914,35.274716],[-81.944416,35.27396],[-81.945533,35.273044],[-81.945839,35.272471],[-81.946005,35.270455],[-81.9462,35.270089],[-81.947539,35.26837],[-81.94966,35.266651],[-81.95033,35.266261],[-81.952981,35.265046],[-81.953456,35.264725],[-81.953958,35.263992],[-81.953957,35.263602],[-81.952756,35.26326],[-81.952142,35.262985],[-81.951723,35.262482],[-81.95055,35.262414],[-81.950187,35.262322],[-81.949768,35.262048],[-81.949767,35.261819],[-81.952111,35.259458],[-81.952166,35.259069],[-81.952528,35.258198],[-81.9537,35.257167],[-81.954034,35.256525],[-81.954062,35.255701],[-81.953949,35.25506],[-81.953138,35.253938],[-81.953138,35.253457],[-81.953333,35.253091],[-81.954114,35.252334],[-81.954142,35.252013],[-81.954002,35.251853],[-81.953695,35.251739],[-81.953444,35.251739],[-81.952802,35.252358],[-81.952411,35.252519],[-81.952132,35.252519],[-81.951685,35.252221],[-81.951238,35.252107],[-81.950066,35.252108],[-81.949507,35.251948],[-81.949507,35.251673],[-81.949981,35.2511],[-81.950232,35.250619],[-81.950351,35.250112],[-81.950211,35.2497],[-81.94996,35.249403],[-81.94996,35.249151],[-81.950294,35.248807],[-81.952025,35.248233],[-81.954007,35.248209],[-81.954537,35.248025],[-81.955178,35.247269],[-81.955066,35.246513],[-81.954367,35.245712],[-81.954115,35.245254],[-81.954143,35.245002],[-81.954421,35.244453],[-81.954728,35.244201],[-81.955426,35.243994],[-81.955537,35.243833],[-81.955537,35.243078]]},"properties":{"stream_order":1,"shape_length":0.06431095830192984}},{"type":"Feature","id":12034663,"geometry":{"type":"LineString","coordinates":[[-81.729622,35.222412],[-81.729258,35.221611],[-81.729284,35.220168]]},"properties":{"stream_order":1,"shape_length":0.002323179537408731}},{"type":"Feature","id":12034723,"geometry":{"type":"LineString","coordinates":[[-81.713635,35.201859],[-81.713579,35.202065],[-81.713356,35.202294],[-81.713105,35.202409],[-81.712883,35.203211],[-81.712856,35.204264],[-81.712522,35.204769],[-81.712522,35.204998],[-81.712718,35.205181],[-81.71269,35.205845],[-81.713221,35.20605],[-81.713333,35.206623],[-81.713864,35.207195],[-81.713892,35.207653],[-81.713697,35.20802],[-81.71367,35.208432],[-81.713782,35.208546],[-81.713894,35.209004],[-81.713838,35.209188],[-81.713364,35.209761],[-81.712946,35.210105],[-81.712445,35.210838],[-81.712362,35.211823],[-81.712223,35.212212],[-81.711721,35.212693],[-81.711526,35.213014],[-81.711303,35.213175],[-81.710522,35.213313],[-81.710187,35.213496],[-81.709881,35.213817],[-81.709853,35.214069]]},"properties":{"stream_order":1,"shape_length":0.01529761694600821}},{"type":"Feature","id":12034759,"geometry":{"type":"LineString","coordinates":[[-81.7199,35.191525],[-81.719817,35.191914],[-81.719232,35.192304],[-81.719121,35.192877],[-81.718759,35.193243],[-81.718062,35.193588],[-81.71795,35.193771],[-81.717951,35.194389],[-81.717366,35.195008],[-81.716864,35.195283],[-81.716781,35.195856],[-81.715916,35.196429],[-81.715248,35.197506],[-81.715221,35.197827],[-81.71497,35.198423],[-81.714944,35.199682],[-81.714665,35.200072],[-81.714415,35.200759],[-81.713718,35.201607],[-81.713635,35.201859]]},"properties":{"stream_order":1,"shape_length":0.012919189256959378}},{"type":"Feature","id":12034711,"geometry":{"type":"LineString","coordinates":[[-81.840815,35.205709],[-81.83836,35.205914],[-81.837132,35.206212],[-81.831522,35.208523],[-81.830713,35.208706],[-81.829374,35.2085],[-81.827449,35.207537],[-81.827281,35.207514],[-81.82717,35.207354]]},"properties":{"stream_order":6,"shape_length":0.014496347330745216}},{"type":"Feature","id":12035545,"geometry":{"type":"LineString","coordinates":[[-81.673456,35.203945],[-81.673399,35.203911],[-81.672904,35.203517]]},"properties":{"stream_order":1,"shape_length":0.0006987616848888046}},{"type":"Feature","id":12034443,"geometry":{"type":"LineString","coordinates":[[-81.717697,35.342403],[-81.717557,35.342197],[-81.717472,35.340983],[-81.716604,35.340091],[-81.716324,35.339587],[-81.714814,35.33826],[-81.714338,35.337482],[-81.714253,35.337115],[-81.713666,35.336681],[-81.713498,35.336429],[-81.713414,35.335948],[-81.713273,35.335673],[-81.712714,35.33517],[-81.712601,35.334529],[-81.712461,35.334231],[-81.71207,35.333911],[-81.711594,35.333155],[-81.711174,35.332835],[-81.710252,35.332698],[-81.71,35.332446]]},"properties":{"stream_order":1,"shape_length":0.01336378690592958}},{"type":"Feature","id":12034627,"geometry":{"type":"LineString","coordinates":[[-81.955537,35.243078],[-81.954643,35.243124],[-81.954057,35.243285],[-81.953192,35.243744],[-81.952355,35.244065],[-81.951546,35.244111],[-81.951127,35.243951],[-81.950736,35.243539],[-81.950456,35.243013],[-81.950427,35.241799],[-81.950538,35.241318],[-81.951012,35.24047],[-81.951793,35.239714],[-81.953048,35.238705],[-81.953772,35.237743],[-81.953744,35.237285],[-81.952878,35.23669],[-81.95084,35.235959],[-81.94922,35.235479],[-81.944082,35.233375],[-81.942965,35.232987],[-81.940118,35.23253],[-81.93928,35.232073],[-81.937297,35.230494],[-81.934532,35.22832],[-81.933499,35.227748],[-81.932103,35.227153],[-81.932075,35.227061]]},"properties":{"stream_order":6,"shape_length":0.037165562698676664}},{"type":"Feature","id":12034481,"geometry":{"type":"LineString","coordinates":[[-81.652403,35.340194],[-81.653101,35.3393],[-81.65352,35.339002],[-81.653883,35.337834],[-81.654218,35.337284],[-81.654525,35.336574],[-81.654889,35.336048],[-81.655811,35.33536],[-81.656425,35.334306],[-81.657375,35.333184],[-81.658213,35.332703],[-81.658828,35.332771],[-81.659219,35.332519],[-81.659275,35.332244],[-81.65947,35.332015],[-81.659722,35.331901],[-81.661734,35.331648],[-81.663355,35.332014],[-81.663746,35.332037],[-81.665451,35.331349],[-81.666038,35.33128],[-81.666764,35.331417],[-81.668609,35.332126],[-81.669028,35.332149],[-81.669252,35.332057],[-81.669727,35.331668],[-81.67009,35.330935],[-81.671431,35.329789],[-81.671738,35.329194],[-81.67252,35.328621],[-81.672687,35.328323],[-81.672938,35.327452],[-81.67319,35.3272],[-81.673916,35.326925],[-81.674754,35.32681],[-81.67604,35.326489],[-81.676934,35.326489],[-81.677633,35.326901],[-81.67794,35.326832],[-81.678835,35.326808],[-81.679198,35.326602],[-81.679281,35.326281],[-81.679057,35.325343],[-81.680398,35.32454],[-81.682298,35.323761],[-81.682717,35.323737],[-81.683416,35.324081],[-81.684087,35.324264]]},"properties":{"stream_order":1,"shape_length":0.04109159128255871}},{"type":"Feature","id":12035405,"geometry":{"type":"LineString","coordinates":[[-81.745102,35.3132],[-81.74552,35.312787],[-81.746023,35.31242],[-81.747195,35.311961],[-81.747502,35.311457],[-81.747946,35.309716],[-81.747945,35.308891],[-81.747692,35.307998],[-81.746712,35.306373],[-81.745757,35.303099],[-81.745449,35.302618],[-81.743882,35.30104],[-81.743686,35.300651],[-81.743658,35.300193],[-81.744659,35.297237],[-81.744743,35.297191],[-81.744741,35.296367],[-81.744658,35.296321],[-81.744629,35.296046],[-81.744321,35.295657],[-81.744152,35.294237],[-81.743871,35.293344],[-81.743842,35.292314],[-81.744092,35.291833],[-81.744259,35.291168],[-81.744118,35.290596],[-81.743419,35.289681],[-81.742496,35.288903],[-81.74202,35.288239],[-81.74202,35.287873],[-81.742494,35.287483],[-81.742381,35.286796],[-81.742297,35.28675],[-81.741708,35.284804],[-81.74151,35.283522],[-81.741256,35.281392],[-81.740779,35.279789],[-81.74022,35.279194],[-81.740079,35.278828],[-81.739856,35.278645],[-81.738678,35.2756],[-81.738119,35.275051],[-81.737474,35.273334],[-81.737279,35.273105],[-81.73549,35.272374],[-81.735071,35.272099],[-81.734819,35.271573],[-81.734008,35.271024],[-81.733924,35.270795],[-81.733561,35.270543],[-81.732779,35.270315],[-81.732499,35.270292],[-81.732136,35.27043],[-81.731439,35.27098],[-81.731048,35.271141],[-81.730099,35.271142],[-81.729764,35.271234],[-81.726861,35.272771],[-81.726247,35.272817],[-81.723873,35.272544],[-81.723509,35.272339],[-81.723592,35.271216],[-81.724261,35.270116],[-81.724399,35.268994],[-81.724426,35.268032],[-81.724314,35.267757],[-81.723978,35.267368],[-81.723838,35.267071],[-81.723809,35.266223],[-81.723725,35.26604],[-81.723082,35.265514],[-81.722859,35.265216],[-81.722802,35.264758],[-81.723973,35.263383],[-81.724168,35.262765],[-81.724111,35.261871],[-81.723776,35.261482],[-81.723412,35.261414],[-81.722798,35.261621],[-81.722212,35.261713],[-81.722044,35.261575],[-81.722044,35.261392],[-81.722714,35.26075],[-81.722797,35.260521],[-81.723076,35.260292],[-81.724109,35.259925],[-81.724415,35.259581],[-81.724415,35.259054],[-81.724247,35.258756],[-81.724022,35.257314],[-81.724104,35.25571],[-81.723992,35.25539],[-81.723349,35.255093],[-81.720668,35.254248],[-81.720276,35.253927],[-81.719857,35.253355],[-81.719159,35.253149],[-81.718768,35.252944],[-81.718516,35.252646],[-81.717147,35.251937],[-81.716588,35.251502],[-81.716169,35.251022],[-81.715861,35.250747],[-81.71547,35.250633],[-81.714744,35.250611],[-81.714024,35.250137],[-81.713046,35.249337],[-81.713018,35.249153],[-81.712932,35.247504],[-81.71282,35.247161],[-81.712819,35.246566],[-81.713126,35.246245],[-81.713209,35.245764],[-81.712371,35.245398],[-81.712343,35.245009],[-81.712929,35.244344],[-81.713152,35.243954],[-81.713151,35.243473],[-81.712508,35.242924],[-81.712033,35.24281],[-81.711782,35.242673],[-81.711698,35.242146],[-81.711781,35.24194],[-81.712478,35.241092],[-81.712506,35.240565],[-81.712366,35.240451],[-81.710774,35.239994],[-81.710634,35.239834],[-81.710578,35.239467],[-81.710773,35.238963],[-81.710772,35.238299],[-81.710632,35.238116],[-81.70946,35.238003],[-81.708902,35.237843],[-81.70851,35.237499],[-81.708509,35.236629],[-81.708397,35.236354],[-81.707839,35.235782],[-81.707587,35.23537],[-81.707027,35.234203],[-81.706467,35.232577],[-81.706438,35.231523],[-81.706578,35.231386],[-81.707304,35.231385],[-81.707499,35.231316],[-81.707471,35.23095],[-81.707163,35.23063],[-81.704203,35.228708],[-81.703867,35.228388],[-81.703671,35.227632],[-81.703448,35.227357],[-81.703196,35.227243],[-81.702833,35.227335],[-81.702332,35.227908]]},"properties":{"stream_order":1,"shape_length":0.12741519184524627}},{"type":"Feature","id":12034877,"geometry":{"type":"LineString","coordinates":[[-81.765366,35.140328],[-81.76542,35.141427],[-81.765222,35.143397],[-81.765191,35.145893],[-81.764967,35.146717],[-81.76452,35.147381],[-81.764352,35.147839],[-81.763765,35.148777],[-81.763569,35.149739],[-81.763427,35.15109],[-81.763426,35.151892],[-81.763982,35.153519],[-81.76426,35.153839],[-81.764818,35.15416],[-81.765403,35.154665],[-81.766154,35.155765],[-81.766516,35.156338],[-81.766988,35.157644],[-81.767294,35.158056],[-81.767824,35.15856],[-81.768827,35.159134],[-81.769105,35.159409],[-81.769383,35.160096],[-81.769773,35.160577],[-81.770498,35.161036],[-81.770693,35.161311],[-81.771528,35.162113],[-81.772503,35.163442],[-81.772781,35.163832],[-81.773058,35.165321],[-81.773225,35.165573],[-81.773727,35.16594],[-81.773809,35.16752],[-81.774282,35.168345],[-81.774978,35.169055],[-81.776456,35.169835],[-81.776706,35.170064],[-81.776818,35.170317],[-81.777152,35.170637],[-81.777487,35.170706]]},"properties":{"stream_order":1,"shape_length":0.036614649320135306}},{"type":"Feature","id":12035547,"geometry":{"type":"LineString","coordinates":[[-81.672904,35.203517],[-81.672783,35.203422]]},"properties":{"stream_order":1,"shape_length":0.00015372770007629854}},{"type":"Feature","id":12034679,"geometry":{"type":"LineString","coordinates":[[-81.932075,35.227061],[-81.93174,35.227016],[-81.930512,35.226719],[-81.927748,35.225758],[-81.925682,35.225141],[-81.924398,35.22489],[-81.923254,35.224845],[-81.921552,35.225006],[-81.920156,35.224983],[-81.919374,35.224869],[-81.918872,35.22464],[-81.918509,35.224297],[-81.918174,35.223793],[-81.917921,35.221778],[-81.917921,35.220816],[-81.917809,35.220129],[-81.917445,35.219236],[-81.916301,35.218481],[-81.915408,35.218183],[-81.913035,35.217795],[-81.910384,35.217567],[-81.909435,35.217407],[-81.908681,35.217155],[-81.90776,35.216698],[-81.906839,35.216377],[-81.903964,35.215714],[-81.902318,35.214959],[-81.901564,35.214501],[-81.901118,35.214387]]},"properties":{"stream_order":6,"shape_length":0.036585678934477714}},{"type":"Feature","id":12035389,"geometry":{"type":"LineString","coordinates":[[-81.919719,35.253887],[-81.919858,35.253131],[-81.919725,35.25013],[-81.919697,35.249992],[-81.919166,35.249489],[-81.918887,35.249077],[-81.918747,35.248069],[-81.918551,35.247268],[-81.918187,35.246581],[-81.917712,35.2461],[-81.916651,35.24436],[-81.916092,35.243261],[-81.915812,35.242986],[-81.915226,35.242689],[-81.914863,35.242391],[-81.914444,35.241338],[-81.914025,35.240971],[-81.913634,35.240399],[-81.913075,35.240079],[-81.912433,35.239529],[-81.912349,35.23875],[-81.912237,35.23843],[-81.911874,35.238224],[-81.911622,35.23788],[-81.911594,35.236964],[-81.911733,35.236575],[-81.912208,35.235934],[-81.912124,35.235636],[-81.911677,35.235522],[-81.911118,35.235041],[-81.910644,35.234285],[-81.910392,35.233507],[-81.910057,35.233003],[-81.90961,35.232637],[-81.908884,35.232408],[-81.908493,35.23211],[-81.908409,35.231515],[-81.908297,35.231217],[-81.908018,35.230965],[-81.907711,35.230828],[-81.907543,35.230599],[-81.907543,35.229614],[-81.906817,35.229202],[-81.906594,35.228996],[-81.906649,35.22808],[-81.906565,35.227943],[-81.905923,35.227645],[-81.905616,35.227394],[-81.904555,35.22705],[-81.902992,35.226158],[-81.90235,35.225631],[-81.901903,35.224761],[-81.9014,35.224349],[-81.900954,35.223845],[-81.90087,35.223364],[-81.900367,35.222883],[-81.900172,35.222059],[-81.900032,35.221716],[-81.899474,35.221166],[-81.899194,35.220754],[-81.899027,35.220273],[-81.898998,35.21922],[-81.899082,35.218922],[-81.900477,35.217089],[-81.901286,35.216448],[-81.901397,35.216264],[-81.901453,35.215646],[-81.901118,35.214387]]},"properties":{"stream_order":1,"shape_length":0.0501462909157066}},{"type":"Feature","id":12035815,"geometry":{"type":"LineString","coordinates":[[-81.88616,35.213382],[-81.888168,35.211733]]},"properties":{"stream_order":1,"shape_length":0.0025990648472282753}},{"type":"Feature","id":12034397,"geometry":{"type":"LineString","coordinates":[[-81.724551,35.369629],[-81.722424,35.368073],[-81.72094,35.366563],[-81.719681,35.36551],[-81.719401,35.365098],[-81.718728,35.363587],[-81.717105,35.362237],[-81.716825,35.361619],[-81.71551,35.360544],[-81.715033,35.359788],[-81.714278,35.359148],[-81.713439,35.358736],[-81.712767,35.358233],[-81.711928,35.357775],[-81.709775,35.356952],[-81.709383,35.356609],[-81.709019,35.355945]]},"properties":{"stream_order":1,"shape_length":0.02123103572449912}},{"type":"Feature","id":12034701,"geometry":{"type":"LineString","coordinates":[[-81.801273,35.209541],[-81.800575,35.209518]]},"properties":{"stream_order":6,"shape_length":0.0006980583124412426}},{"type":"Feature","id":12035541,"geometry":{"type":"LineString","coordinates":[[-81.753906,35.217957],[-81.753719,35.217973],[-81.753473,35.218093]]},"properties":{"stream_order":2,"shape_length":0.0004617824779511623}},{"type":"Feature","id":12034719,"geometry":{"type":"LineString","coordinates":[[-81.671039,35.221627],[-81.67168,35.221215],[-81.672433,35.220435],[-81.672935,35.219496],[-81.673242,35.218672],[-81.673409,35.217801],[-81.673771,35.217137],[-81.673826,35.216564],[-81.673435,35.215763],[-81.673435,35.215167],[-81.673686,35.214709],[-81.673629,35.213747],[-81.673964,35.213106],[-81.673963,35.212671],[-81.673684,35.212373],[-81.6736,35.211984],[-81.673098,35.211618],[-81.673098,35.211343],[-81.673404,35.21077],[-81.673431,35.209304],[-81.673263,35.20903],[-81.673263,35.208732],[-81.673961,35.208205],[-81.673848,35.207449],[-81.67396,35.206693],[-81.673847,35.205411],[-81.673986,35.204952],[-81.673875,35.20438],[-81.673539,35.204128],[-81.673456,35.203945]]},"properties":{"stream_order":1,"shape_length":0.019951538416979872}},{"type":"Feature","id":166756451,"geometry":{"type":"LineString","coordinates":[[-81.679376,35.207657],[-81.678507,35.206067],[-81.678056,35.205093],[-81.676768,35.204259],[-81.675132,35.203617],[-81.672783,35.203422]]},"properties":{"stream_order":6,"shape_length":0.008533893512276682}},{"type":"Feature","id":12034735,"geometry":{"type":"LineString","coordinates":[[-81.696528,35.19926],[-81.696082,35.199535],[-81.695747,35.199879],[-81.695524,35.199879],[-81.695189,35.199719],[-81.694715,35.199765],[-81.693543,35.200453],[-81.692204,35.200477],[-81.691255,35.200203],[-81.68866,35.200571],[-81.687684,35.200548],[-81.687042,35.200342],[-81.686344,35.199633],[-81.686009,35.199656],[-81.684949,35.200069],[-81.684754,35.200252],[-81.684838,35.201306],[-81.684615,35.201649],[-81.683137,35.202818],[-81.682608,35.203322],[-81.68244,35.203757],[-81.682469,35.204193],[-81.682804,35.204765],[-81.683642,35.205704],[-81.683726,35.20591],[-81.683586,35.206139],[-81.682805,35.206322],[-81.681634,35.207239],[-81.679932,35.207858],[-81.679653,35.207858]]},"properties":{"stream_order":1,"shape_length":0.02454502311358756}},{"type":"Feature","id":12034673,"geometry":{"type":"LineString","coordinates":[[-81.747923,35.217126],[-81.748007,35.217561],[-81.748372,35.2185]]},"properties":{"stream_order":1,"shape_length":0.0014499177335683823}},{"type":"Feature","id":12034453,"geometry":{"type":"LineString","coordinates":[[-81.672393,35.350768],[-81.673707,35.350332],[-81.674853,35.349644],[-81.675579,35.348957],[-81.675607,35.348705],[-81.675103,35.34795],[-81.675355,35.347674],[-81.675382,35.34701],[-81.675829,35.346552],[-81.676248,35.346506],[-81.676891,35.346689],[-81.677059,35.346551],[-81.677981,35.346253],[-81.678316,35.345749],[-81.679015,35.345291],[-81.679154,35.34497],[-81.679042,35.344627],[-81.678539,35.3441],[-81.678315,35.343734],[-81.678342,35.343116],[-81.678426,35.34268],[-81.678426,35.342016],[-81.677838,35.341398],[-81.677726,35.340734],[-81.677446,35.340459],[-81.676496,35.340002],[-81.676244,35.339704],[-81.676104,35.339223],[-81.676327,35.33865],[-81.676383,35.337986],[-81.677025,35.33739],[-81.677304,35.336795],[-81.677304,35.336245],[-81.676073,35.334093],[-81.6761,35.333223],[-81.676519,35.332558],[-81.677021,35.331436],[-81.677384,35.331069],[-81.678418,35.33045],[-81.68124,35.329212],[-81.68381,35.328684]]},"properties":{"stream_order":2,"shape_length":0.0338921344856147}},{"type":"Feature","id":12034795,"geometry":{"type":"LineString","coordinates":[[-81.777487,35.170706],[-81.777486,35.170821],[-81.777765,35.171073],[-81.778182,35.172195],[-81.778293,35.173135],[-81.778096,35.174738],[-81.778065,35.176776],[-81.77759,35.178104],[-81.777449,35.179341],[-81.777309,35.179661],[-81.776946,35.179867],[-81.775467,35.180049],[-81.774992,35.180667],[-81.774406,35.180987],[-81.774155,35.181376],[-81.773986,35.182338],[-81.773315,35.183574],[-81.773119,35.184513],[-81.772532,35.1852],[-81.772225,35.185749],[-81.771804,35.187192],[-81.771413,35.188062],[-81.771243,35.189733],[-81.770572,35.191199],[-81.770544,35.191519],[-81.768977,35.195114],[-81.769142,35.196763],[-81.769532,35.197519],[-81.770451,35.198756],[-81.770562,35.19965],[-81.770422,35.200108],[-81.769975,35.200497],[-81.769109,35.200862],[-81.767155,35.201319],[-81.765119,35.20134],[-81.764811,35.201592],[-81.76442,35.202508],[-81.764112,35.203286],[-81.763357,35.203881],[-81.762297,35.204246],[-81.761794,35.204612],[-81.761291,35.205116],[-81.759336,35.205961],[-81.759029,35.206236],[-81.758498,35.207083],[-81.758051,35.207426],[-81.757325,35.207792],[-81.757157,35.207975],[-81.757128,35.208524],[-81.756765,35.208799],[-81.756068,35.208913],[-81.755872,35.20905],[-81.755648,35.209668],[-81.755229,35.20992],[-81.754196,35.210171],[-81.753693,35.210697],[-81.753721,35.211018],[-81.754306,35.211637],[-81.754919,35.211981],[-81.756258,35.212486],[-81.757652,35.21338],[-81.757679,35.213747],[-81.7574,35.213976],[-81.756702,35.21425],[-81.756143,35.214776],[-81.755052,35.216745],[-81.754465,35.217133],[-81.753962,35.217751],[-81.753906,35.217957]]},"properties":{"stream_order":2,"shape_length":0.06585662184691488}},{"type":"Feature","id":12034527,"geometry":{"type":"LineString","coordinates":[[-81.937682,35.304379],[-81.936061,35.303624],[-81.934161,35.303304],[-81.93363,35.303075],[-81.931729,35.301565],[-81.930248,35.30081],[-81.928124,35.300147],[-81.926448,35.299781],[-81.924967,35.299667],[-81.923794,35.299713],[-81.9229,35.299897],[-81.922342,35.299897],[-81.921559,35.299737],[-81.920386,35.299807],[-81.919688,35.300105],[-81.917733,35.301663],[-81.917398,35.301846],[-81.916169,35.302167],[-81.915303,35.302511],[-81.914717,35.302923],[-81.914075,35.30384],[-81.91374,35.304527],[-81.913377,35.305558],[-81.913265,35.305649],[-81.912902,35.305604],[-81.91198,35.305192],[-81.911729,35.305146],[-81.910639,35.305284],[-81.910164,35.305261],[-81.909466,35.305032],[-81.909102,35.305124],[-81.908991,35.305582],[-81.908795,35.305834],[-81.908544,35.305971],[-81.907957,35.305903],[-81.905471,35.305079],[-81.904297,35.304347],[-81.903822,35.304301],[-81.900945,35.30547],[-81.899995,35.30602],[-81.899241,35.306295],[-81.898738,35.306318],[-81.898123,35.30618],[-81.897648,35.305906],[-81.897006,35.305906],[-81.895693,35.306364],[-81.895218,35.306616],[-81.894855,35.30696],[-81.893654,35.309113],[-81.893319,35.309479]]},"properties":{"stream_order":1,"shape_length":0.05129089076509073}},{"type":"Feature","id":12034793,"geometry":{"type":"LineString","coordinates":[[-81.810004,35.176223],[-81.811759,35.178903],[-81.811954,35.179636],[-81.811953,35.180598],[-81.811367,35.181903],[-81.811366,35.182476],[-81.811617,35.183048],[-81.811728,35.183804],[-81.811615,35.185155],[-81.811167,35.187629],[-81.810104,35.192255],[-81.809963,35.193079],[-81.809572,35.19372],[-81.809516,35.19459],[-81.809348,35.194911],[-81.808427,35.195506],[-81.807674,35.195826],[-81.80745,35.195986],[-81.807422,35.196673],[-81.808536,35.198872],[-81.80926,35.20114],[-81.809427,35.201438],[-81.810096,35.201942],[-81.810542,35.202813],[-81.810514,35.203179],[-81.810207,35.203545],[-81.809509,35.204118],[-81.809118,35.204759],[-81.80895,35.204896],[-81.807583,35.205353],[-81.806829,35.206132],[-81.806382,35.206315],[-81.805963,35.206269],[-81.805657,35.206131],[-81.804764,35.206108],[-81.804178,35.205695],[-81.803564,35.205397],[-81.802978,35.20542],[-81.802643,35.205694],[-81.802559,35.205946],[-81.802643,35.206496],[-81.803088,35.207596],[-81.803172,35.207641],[-81.803172,35.208168],[-81.802948,35.208328],[-81.801971,35.208511],[-81.801636,35.208763],[-81.801329,35.209129],[-81.801273,35.209541]]},"properties":{"stream_order":1,"shape_length":0.04463973420841031}},{"type":"Feature","id":12035513,"geometry":{"type":"LineString","coordinates":[[-81.728871,35.219771],[-81.727721,35.21963],[-81.726646,35.219092]]},"properties":{"stream_order":6,"shape_length":0.0023614140976334808}},{"type":"Feature","id":12035805,"geometry":{"type":"LineString","coordinates":[[-81.733039,35.231135],[-81.732897,35.228936]]},"properties":{"stream_order":1,"shape_length":0.002203086904768586}},{"type":"Feature","id":12034779,"geometry":{"type":"LineString","coordinates":[[-81.842191,35.181158],[-81.841549,35.181455],[-81.841047,35.181593],[-81.840099,35.181661],[-81.839708,35.181821],[-81.839597,35.181982],[-81.839624,35.182211],[-81.841744,35.184066],[-81.841827,35.184387],[-81.841604,35.184707],[-81.841325,35.184914],[-81.840544,35.184868],[-81.840321,35.184959],[-81.840181,35.185142],[-81.839456,35.185211],[-81.839205,35.18576],[-81.838758,35.186035],[-81.838674,35.186562],[-81.838423,35.186791],[-81.838284,35.186814]]},"properties":{"stream_order":2,"shape_length":0.011038363051651665}},{"type":"Feature","id":12035777,"geometry":{"type":"LineString","coordinates":[[-81.901937,35.347747],[-81.898247,35.345893]]},"properties":{"stream_order":1,"shape_length":0.004129787715790325}},{"type":"Feature","id":12035523,"geometry":{"type":"LineString","coordinates":[[-81.709821,35.214258],[-81.709537,35.214427],[-81.707738,35.21432]]},"properties":{"stream_order":6,"shape_length":0.002132350805834566}},{"type":"Feature","id":12035515,"geometry":{"type":"LineString","coordinates":[[-81.694812,35.215408],[-81.694673,35.215295],[-81.694441,35.215157]]},"properties":{"stream_order":3,"shape_length":0.00044912992764946976}},{"type":"Feature","id":12034797,"geometry":{"type":"LineString","coordinates":[[-81.77799,35.169493],[-81.777962,35.169791],[-81.777487,35.170706]]},"properties":{"stream_order":2,"shape_length":0.001330702144360989}},{"type":"Feature","id":12034403,"geometry":{"type":"LineString","coordinates":[[-81.676322,35.373944],[-81.675259,35.372891],[-81.672601,35.370831],[-81.671986,35.370556],[-81.671678,35.370167],[-81.671287,35.369846],[-81.670336,35.369343],[-81.670028,35.368908],[-81.66972,35.368244],[-81.669692,35.367603],[-81.670138,35.366663],[-81.670026,35.364923],[-81.669801,35.364304],[-81.669661,35.363343],[-81.669745,35.363205],[-81.669716,35.362083],[-81.669828,35.361556],[-81.670219,35.360731],[-81.670302,35.36025],[-81.670218,35.360021],[-81.670218,35.35954],[-81.670442,35.359289],[-81.671867,35.358372],[-81.672258,35.357639],[-81.672341,35.35702],[-81.67262,35.356356],[-81.673263,35.355691],[-81.673375,35.355325],[-81.673291,35.355027],[-81.672843,35.354295],[-81.672842,35.353333],[-81.672282,35.351982],[-81.672254,35.351501],[-81.672393,35.350768]]},"properties":{"stream_order":1,"shape_length":0.028214065026031358}},{"type":"Feature","id":12034451,"geometry":{"type":"LineString","coordinates":[[-81.714329,35.329924],[-81.713658,35.329718],[-81.712988,35.32981],[-81.711842,35.330269],[-81.710753,35.330797],[-81.71039,35.33137],[-81.710223,35.332149],[-81.71,35.332446]]},"properties":{"stream_order":2,"shape_length":0.005669695945451328}},{"type":"Feature","id":12034751,"geometry":{"type":"LineString","coordinates":[[-81.661062,35.194812],[-81.660253,35.194995],[-81.659918,35.19527],[-81.659695,35.19566],[-81.659751,35.196255],[-81.659835,35.196347],[-81.659891,35.196828],[-81.659752,35.197423],[-81.660199,35.197904],[-81.660255,35.199072],[-81.660506,35.199255],[-81.661567,35.19953],[-81.661707,35.200629],[-81.66179,35.20072]]},"properties":{"stream_order":1,"shape_length":0.007993558361819416}},{"type":"Feature","id":12035947,"geometry":{"type":"LineString","coordinates":[[-81.759677,35.222245],[-81.759615,35.222224],[-81.759331,35.222264]]},"properties":{"stream_order":6,"shape_length":0.00035231140498868295}},{"type":"Feature","id":12034697,"geometry":{"type":"LineString","coordinates":[[-81.811848,35.210944],[-81.811317,35.211104],[-81.810647,35.211676],[-81.810005,35.2125],[-81.808832,35.213576],[-81.808078,35.213896],[-81.807464,35.213988],[-81.806962,35.213896],[-81.805958,35.213506],[-81.805149,35.213116],[-81.803782,35.211833],[-81.803671,35.211581],[-81.801803,35.209908],[-81.801273,35.209541]]},"properties":{"stream_order":6,"shape_length":0.013299486135296882}},{"type":"Feature","id":12034473,"geometry":{"type":"LineString","coordinates":[[-81.913471,35.327063],[-81.912521,35.326422],[-81.911598,35.32601],[-81.910257,35.32514],[-81.908664,35.324522],[-81.908216,35.324248],[-81.907042,35.323195],[-81.906707,35.323011],[-81.905841,35.322783]]},"properties":{"stream_order":1,"shape_length":0.008844484660946108}},{"type":"Feature","id":12035803,"geometry":{"type":"LineString","coordinates":[[-81.841767,35.253252],[-81.839953,35.252335]]},"properties":{"stream_order":1,"shape_length":0.002032663185515485}},{"type":"Feature","id":12034801,"geometry":{"type":"LineString","coordinates":[[-81.902968,35.165284],[-81.903163,35.165948],[-81.903303,35.1662],[-81.904781,35.167413],[-81.905256,35.1681],[-81.905451,35.16881],[-81.905451,35.169474],[-81.905368,35.169658],[-81.904392,35.170299],[-81.904169,35.170574],[-81.904197,35.170895],[-81.904811,35.171673],[-81.904923,35.171948],[-81.905175,35.174101],[-81.905008,35.175063],[-81.904868,35.175452],[-81.904645,35.175681],[-81.904171,35.175865],[-81.903865,35.176185],[-81.903502,35.1763],[-81.902888,35.176369],[-81.902777,35.176483],[-81.902973,35.177605],[-81.902973,35.178109],[-81.902722,35.178865],[-81.903057,35.179644],[-81.902862,35.180468],[-81.90197,35.181774],[-81.901133,35.182599],[-81.900938,35.183354],[-81.900687,35.183675],[-81.899851,35.184019],[-81.8996,35.184248],[-81.898959,35.18576],[-81.898987,35.186401],[-81.899182,35.187134],[-81.899015,35.187661],[-81.898932,35.187775],[-81.898625,35.189149],[-81.898207,35.189997],[-81.897761,35.190317],[-81.897147,35.190524],[-81.896701,35.190867],[-81.896227,35.191394],[-81.895473,35.191532],[-81.895278,35.191692],[-81.895195,35.192082],[-81.895027,35.192265],[-81.894553,35.192448],[-81.894107,35.192906],[-81.894163,35.193319],[-81.895028,35.194234],[-81.895,35.194326],[-81.895084,35.194395],[-81.895168,35.194921],[-81.895028,35.195334],[-81.893522,35.197166],[-81.893411,35.197441]]},"properties":{"stream_order":1,"shape_length":0.04065914149581412}},{"type":"Feature","id":12035833,"geometry":{"type":"LineString","coordinates":[[-81.829233,35.156145],[-81.832411,35.157474]]},"properties":{"stream_order":1,"shape_length":0.0034453421817387804}},{"type":"Feature","id":12035517,"geometry":{"type":"LineString","coordinates":[[-81.72691,35.218906],[-81.726646,35.219092]]},"properties":{"stream_order":1,"shape_length":0.00032350673456577555}},{"type":"Feature","id":12035565,"geometry":{"type":"LineString","coordinates":[[-81.65156,35.200363],[-81.651061,35.200079],[-81.650101,35.199826],[-81.647976,35.198616],[-81.644791,35.197683],[-81.640721,35.196098],[-81.639507,35.195407],[-81.635097,35.194729],[-81.63223,35.194784],[-81.628288,35.194299],[-81.624402,35.193075]]},"properties":{"stream_order":6,"shape_length":0.028470428326688356}},{"type":"Feature","id":12034577,"geometry":{"type":"LineString","coordinates":[[-81.681962,35.283612],[-81.682185,35.283314],[-81.682212,35.282352],[-81.682128,35.281963],[-81.682072,35.280657],[-81.682155,35.280428],[-81.682378,35.280268],[-81.683272,35.280153],[-81.684166,35.2799],[-81.684557,35.279625],[-81.684808,35.279305],[-81.684835,35.278732],[-81.68517,35.278182],[-81.686928,35.276555],[-81.687347,35.275776],[-81.687569,35.274837],[-81.68796,35.274333],[-81.687931,35.27344],[-81.687819,35.273279],[-81.687233,35.272959],[-81.686981,35.272662],[-81.686925,35.272089],[-81.686785,35.271883],[-81.686757,35.271585],[-81.686896,35.271333],[-81.687315,35.271264],[-81.687986,35.27163],[-81.688544,35.271767],[-81.688796,35.27163],[-81.688795,35.271286],[-81.687929,35.270256],[-81.687873,35.269913],[-81.688068,35.269684],[-81.688822,35.2695],[-81.689939,35.269637],[-81.690162,35.269522],[-81.69058,35.268629],[-81.690636,35.268148],[-81.689462,35.267003],[-81.689266,35.266431],[-81.689434,35.266247],[-81.690132,35.266064],[-81.690662,35.265743],[-81.692337,35.265765],[-81.692896,35.26549],[-81.692951,35.265192],[-81.692811,35.264803],[-81.692476,35.264413],[-81.692029,35.263681],[-81.692,35.263406],[-81.692196,35.263223],[-81.692363,35.263177],[-81.69415,35.263336],[-81.695658,35.263037],[-81.696384,35.262991]]},"properties":{"stream_order":3,"shape_length":0.03694121567992944}},{"type":"Feature","id":12035531,"geometry":{"type":"LineString","coordinates":[[-81.748554,35.218782],[-81.747822,35.219099],[-81.740812,35.219736],[-81.733975,35.219444],[-81.728871,35.219771]]},"properties":{"stream_order":6,"shape_length":0.019793716208274068}},{"type":"Feature","id":12034541,"geometry":{"type":"LineString","coordinates":[[-81.942363,35.290451],[-81.942165,35.287131],[-81.94169,35.286146],[-81.941047,35.285459],[-81.940655,35.284841],[-81.940347,35.284109]]},"properties":{"stream_order":1,"shape_length":0.006887099650496856}},{"type":"Feature","id":12034507,"geometry":{"type":"LineString","coordinates":[[-81.71,35.332446],[-81.709385,35.332447],[-81.708602,35.331806],[-81.707568,35.331669],[-81.707204,35.331395],[-81.706896,35.331006],[-81.706784,35.330433],[-81.707649,35.329402],[-81.707649,35.328807],[-81.707481,35.328234],[-81.707229,35.327822],[-81.706781,35.327433],[-81.705831,35.327411],[-81.70516,35.327068],[-81.704349,35.327022],[-81.703678,35.326794],[-81.703147,35.326474],[-81.702196,35.325581],[-81.701749,35.325307],[-81.701161,35.324711],[-81.700937,35.323979],[-81.700964,35.32336],[-81.701494,35.322352],[-81.70222,35.321665],[-81.702443,35.321344],[-81.702471,35.320955],[-81.702889,35.32013],[-81.703588,35.319602],[-81.703671,35.319373],[-81.703559,35.318801],[-81.703335,35.318251],[-81.702999,35.317817],[-81.702468,35.317519],[-81.702272,35.317061],[-81.701601,35.316672],[-81.701293,35.31665],[-81.701042,35.316833],[-81.701015,35.317635],[-81.700875,35.317795],[-81.700848,35.318207],[-81.700736,35.318345],[-81.700233,35.318391],[-81.699115,35.317865],[-81.698668,35.317545],[-81.698639,35.317224],[-81.698556,35.317201],[-81.698471,35.316835],[-81.698332,35.31672],[-81.697717,35.316537],[-81.697213,35.316057],[-81.696431,35.315874],[-81.696068,35.316035],[-81.695677,35.316355],[-81.695258,35.316401],[-81.694866,35.316218]]},"properties":{"stream_order":2,"shape_length":0.03366535805790992}},{"type":"Feature","id":12035553,"geometry":{"type":"LineString","coordinates":[[-81.672783,35.203422],[-81.671419,35.203526],[-81.669637,35.203172],[-81.668467,35.202731]]},"properties":{"stream_order":6,"shape_length":0.0044352494478969344}},{"type":"Feature","id":12035407,"geometry":{"type":"LineString","coordinates":[[-81.696384,35.262991],[-81.697528,35.262464],[-81.699175,35.26189],[-81.700152,35.261179],[-81.700236,35.260996],[-81.700152,35.260698],[-81.699789,35.260492],[-81.69909,35.260333],[-81.698587,35.260035],[-81.698392,35.260035],[-81.697806,35.260425],[-81.697136,35.260517],[-81.696745,35.260219],[-81.696632,35.259533],[-81.696744,35.259326],[-81.697441,35.258753],[-81.697581,35.258478],[-81.697525,35.258226],[-81.697301,35.258112],[-81.696296,35.257884],[-81.696016,35.257655],[-81.695821,35.257357],[-81.695765,35.25706],[-81.696406,35.256349],[-81.696992,35.255387],[-81.696991,35.255135],[-81.696321,35.254838],[-81.6954,35.254655],[-81.693194,35.254519],[-81.692858,35.254313],[-81.69283,35.253946],[-81.693277,35.25358],[-81.6935,35.253259],[-81.694421,35.252663],[-81.694448,35.252365],[-81.694001,35.251999],[-81.693275,35.251862],[-81.690818,35.251795],[-81.69012,35.251497],[-81.690008,35.251245],[-81.68998,35.250444],[-81.689901,35.250131],[-81.690152,35.249513],[-81.690794,35.248917],[-81.691129,35.248825],[-81.692553,35.248778],[-81.692999,35.248709],[-81.693641,35.24848],[-81.694171,35.247953],[-81.694227,35.247609],[-81.693919,35.247128],[-81.693807,35.24651],[-81.69269,35.246305],[-81.692522,35.246213],[-81.692522,35.246053],[-81.693694,35.245434],[-81.694085,35.244998],[-81.694112,35.244449],[-81.693889,35.244197],[-81.693358,35.2439],[-81.692883,35.243877],[-81.692074,35.244175],[-81.691013,35.243855],[-81.690762,35.243672],[-81.690733,35.243237],[-81.690845,35.242825],[-81.691347,35.242298],[-81.691542,35.241954],[-81.691569,35.241473],[-81.691374,35.241175],[-81.691345,35.240534],[-81.691512,35.240099],[-81.692349,35.238885],[-81.692711,35.238678],[-81.693605,35.238563],[-81.694637,35.238196],[-81.695977,35.237989],[-81.696535,35.237737],[-81.696758,35.237553],[-81.696897,35.237256],[-81.696814,35.237072],[-81.69645,35.236844],[-81.693937,35.235815],[-81.693546,35.235517],[-81.693378,35.235197],[-81.693406,35.234601],[-81.693712,35.233937],[-81.694075,35.233478],[-81.694326,35.233318],[-81.695721,35.23279],[-81.69586,35.232447],[-81.695748,35.232172],[-81.695497,35.23192],[-81.695496,35.231554],[-81.695859,35.231095],[-81.696222,35.230912],[-81.699738,35.23036],[-81.700966,35.230062],[-81.701775,35.22974],[-81.702389,35.229167],[-81.702584,35.228732],[-81.702583,35.228228],[-81.702332,35.227908]]},"properties":{"stream_order":3,"shape_length":0.07148924416995707}},{"type":"Feature","id":12034893,"geometry":{"type":"LineString","coordinates":[[-81.783549,35.135395],[-81.783381,35.136173],[-81.782347,35.13828],[-81.782346,35.139356],[-81.781955,35.140226],[-81.781871,35.140707],[-81.782065,35.141738],[-81.782538,35.142517],[-81.783039,35.142998],[-81.784126,35.143549],[-81.784209,35.143686],[-81.783846,35.144258],[-81.783205,35.14483],[-81.782003,35.146708],[-81.781612,35.147669],[-81.781528,35.148242],[-81.781667,35.148631],[-81.781638,35.149204],[-81.781135,35.150692],[-81.781105,35.152776],[-81.781243,35.153349],[-81.781968,35.154037],[-81.782079,35.154449],[-81.781994,35.155205],[-81.781993,35.156556],[-81.782076,35.157037],[-81.782493,35.15777],[-81.782465,35.158297],[-81.782297,35.158617],[-81.780596,35.159143],[-81.780205,35.159578],[-81.780399,35.160356],[-81.779729,35.161295],[-81.779448,35.162669],[-81.779447,35.163242],[-81.778302,35.164981],[-81.778217,35.165714],[-81.778746,35.16647],[-81.778662,35.166951],[-81.778355,35.167386],[-81.778299,35.167867],[-81.777796,35.168737],[-81.777851,35.16931],[-81.77799,35.169493]]},"properties":{"stream_order":1,"shape_length":0.039424421384738687}},{"type":"Feature","id":12035779,"geometry":{"type":"LineString","coordinates":[[-81.744153,35.314117],[-81.745102,35.3132]]},"properties":{"stream_order":1,"shape_length":0.001319506650242893}},{"type":"Feature","id":12035379,"geometry":{"type":"LineString","coordinates":[[-81.757252,35.409856],[-81.755966,35.409259],[-81.755099,35.40896],[-81.754176,35.408776],[-81.753953,35.408593],[-81.753758,35.407997],[-81.753116,35.407218],[-81.753033,35.406645],[-81.752865,35.40637],[-81.750854,35.404605],[-81.749825,35.404187],[-81.749237,35.403958],[-81.74901,35.401531],[-81.748589,35.400867],[-81.747581,35.399907],[-81.746964,35.3989],[-81.746936,35.398671],[-81.746852,35.398625],[-81.746599,35.397938],[-81.746123,35.397457],[-81.745338,35.396176],[-81.744861,35.395764],[-81.742062,35.39421],[-81.739683,35.39325],[-81.738285,35.392908],[-81.736214,35.392566],[-81.73599,35.392429],[-81.735822,35.391994],[-81.735374,35.391308],[-81.734898,35.39085],[-81.734673,35.389957],[-81.734364,35.38966],[-81.734308,35.389087],[-81.73414,35.388904],[-81.73344,35.388561],[-81.7326,35.387737],[-81.732124,35.3876],[-81.731146,35.387601],[-81.730586,35.387167],[-81.730026,35.38703],[-81.728712,35.387603],[-81.728125,35.387719],[-81.727426,35.387719],[-81.726867,35.387514],[-81.726335,35.387102],[-81.725747,35.386461],[-81.725158,35.384996],[-81.724934,35.384813],[-81.724598,35.384699],[-81.723983,35.384676],[-81.721354,35.385159],[-81.719536,35.384772],[-81.71906,35.384497],[-81.71906,35.384314],[-81.719339,35.383718],[-81.719395,35.383329],[-81.719085,35.381817],[-81.718637,35.381314],[-81.718525,35.381016],[-81.718496,35.37994],[-81.718188,35.379551],[-81.718187,35.379253],[-81.718382,35.378795],[-81.718774,35.378588],[-81.718885,35.378405],[-81.718773,35.377878],[-81.719752,35.37774],[-81.720758,35.377739],[-81.721513,35.377876],[-81.722408,35.377875],[-81.722744,35.377761],[-81.722911,35.377554],[-81.722966,35.377028],[-81.722798,35.376661],[-81.722322,35.376112],[-81.722265,35.375127],[-81.722041,35.374601],[-81.721201,35.373823],[-81.718683,35.372771],[-81.718095,35.372245],[-81.717816,35.372154],[-81.716641,35.372086],[-81.716389,35.371995],[-81.716081,35.371743],[-81.715829,35.371399],[-81.714934,35.370644],[-81.713955,35.370118],[-81.713227,35.369317],[-81.712639,35.368951],[-81.711017,35.368632],[-81.71029,35.368174],[-81.709758,35.367625],[-81.709785,35.367075],[-81.710372,35.366502],[-81.710566,35.365563],[-81.710482,35.365449],[-81.70956,35.365175],[-81.709196,35.364877],[-81.709028,35.364488],[-81.708998,35.363137],[-81.708662,35.362771],[-81.708354,35.362221],[-81.708297,35.361328],[-81.708381,35.360755],[-81.708269,35.360458],[-81.707541,35.359977],[-81.707233,35.359268],[-81.706925,35.35897],[-81.706757,35.358627],[-81.7067,35.358123],[-81.706812,35.357802],[-81.706811,35.357321],[-81.706923,35.357],[-81.707258,35.356679],[-81.709019,35.355945]]},"properties":{"stream_order":1,"shape_length":0.095855732078226}},{"type":"Feature","id":12035393,"geometry":{"type":"LineString","coordinates":[[-81.873818,35.27396],[-81.873762,35.273685],[-81.873539,35.273341],[-81.873455,35.27199],[-81.873232,35.271463],[-81.872534,35.27073],[-81.872338,35.270249],[-81.872282,35.269516],[-81.872394,35.269058],[-81.872394,35.268234],[-81.872199,35.267524],[-81.871584,35.266264],[-81.871277,35.266035],[-81.87016,35.265806],[-81.86896,35.265738],[-81.868513,35.265623],[-81.868234,35.265325],[-81.868318,35.26276],[-81.868234,35.262394],[-81.867201,35.2615],[-81.866894,35.26118],[-81.866782,35.260745],[-81.86628,35.260424],[-81.865833,35.25992],[-81.865582,35.259279],[-81.86533,35.258981],[-81.86466,35.258775],[-81.864409,35.258569],[-81.864242,35.258088],[-81.86346,35.257721],[-81.863069,35.25724],[-81.86293,35.25566],[-81.863014,35.255225],[-81.863516,35.253942],[-81.863516,35.253393],[-81.863405,35.253187],[-81.863377,35.252797],[-81.86388,35.251881],[-81.864661,35.251492],[-81.86508,35.250942],[-81.865806,35.250209],[-81.866066,35.250119],[-81.866568,35.249592],[-81.86682,35.249203],[-81.866903,35.247599],[-81.867155,35.24737],[-81.867322,35.24705],[-81.86735,35.245584],[-81.868523,35.24405],[-81.868718,35.243523],[-81.868886,35.242309],[-81.868941,35.240958],[-81.868662,35.238416],[-81.868355,35.237293],[-81.868216,35.237019],[-81.867546,35.23624],[-81.865341,35.234935],[-81.86481,35.234522],[-81.864531,35.234156],[-81.864364,35.23356],[-81.864308,35.232942],[-81.864503,35.232438],[-81.864978,35.232118],[-81.865257,35.231797],[-81.865787,35.231637],[-81.866374,35.23127],[-81.866457,35.231041],[-81.866346,35.230721],[-81.866402,35.229942],[-81.866067,35.229507],[-81.866011,35.228682],[-81.866095,35.228545],[-81.86629,35.22811],[-81.866178,35.227904],[-81.866123,35.227423],[-81.866262,35.227033],[-81.866792,35.226438],[-81.866792,35.226163],[-81.866206,35.225843],[-81.865648,35.225384],[-81.865202,35.224697],[-81.864979,35.223827],[-81.864979,35.222568],[-81.865146,35.222201],[-81.865174,35.221514],[-81.864923,35.22085],[-81.864365,35.219728],[-81.863109,35.218834],[-81.862746,35.21872],[-81.862383,35.21872],[-81.862076,35.218903],[-81.861825,35.219453],[-81.861239,35.219659],[-81.861016,35.219865],[-81.860709,35.220369],[-81.860485,35.22046],[-81.859592,35.220575],[-81.859174,35.220346],[-81.857946,35.220323],[-81.856523,35.219452],[-81.854765,35.219086],[-81.853537,35.21849],[-81.852951,35.218376],[-81.850718,35.21833],[-81.84949,35.218192],[-81.84882,35.218009],[-81.848458,35.217665],[-81.847983,35.216863],[-81.847035,35.216176],[-81.847007,35.215123],[-81.846896,35.214848],[-81.846031,35.214206],[-81.845891,35.21384],[-81.846087,35.21368],[-81.847733,35.213428],[-81.847929,35.213314],[-81.848096,35.212947],[-81.848012,35.212535],[-81.847817,35.21226],[-81.847678,35.211756],[-81.84765,35.211],[-81.84779,35.209191],[-81.847679,35.208802],[-81.847483,35.20871],[-81.847121,35.20871],[-81.846925,35.208847],[-81.846646,35.20958],[-81.846479,35.209764],[-81.846004,35.209924],[-81.844218,35.2099],[-81.843465,35.209694],[-81.842153,35.20974],[-81.841735,35.209419],[-81.8414,35.208617],[-81.84087,35.20832],[-81.840898,35.207953],[-81.841791,35.207243],[-81.841931,35.206785],[-81.840899,35.205938],[-81.840815,35.205709]]},"properties":{"stream_order":2,"shape_length":0.108013441370008}},{"type":"Feature","id":25776238,"geometry":{"type":"LineString","coordinates":[[-81.679653,35.207858],[-81.679376,35.207657]]},"properties":{"stream_order":1,"shape_length":0.00034222292854757465}},{"type":"Feature","id":12034699,"geometry":{"type":"LineString","coordinates":[[-81.800575,35.209518],[-81.79918,35.209769],[-81.798677,35.209998],[-81.798202,35.210501],[-81.796889,35.212654],[-81.796191,35.213501],[-81.795325,35.21437],[-81.794627,35.214828],[-81.793622,35.215079],[-81.791528,35.215422],[-81.789072,35.21613],[-81.784996,35.216997],[-81.783573,35.216745],[-81.781788,35.216079],[-81.780867,35.21585],[-81.779807,35.215963],[-81.777825,35.216626],[-81.7752,35.217655],[-81.773302,35.218226],[-81.772715,35.218317],[-81.771348,35.218316],[-81.769953,35.217811],[-81.769228,35.21765],[-81.768418,35.21781],[-81.767162,35.218198],[-81.765012,35.219135],[-81.764397,35.219593],[-81.76409,35.220096],[-81.764088,35.221448],[-81.764004,35.221814],[-81.763752,35.222157],[-81.763333,35.222409],[-81.762998,35.2225],[-81.76177,35.222499],[-81.759677,35.222245]]},"properties":{"stream_order":6,"shape_length":0.046835105408069164}},{"type":"Feature","id":12035557,"geometry":{"type":"LineString","coordinates":[[-81.662092,35.201297],[-81.660389,35.202309],[-81.658975,35.202677],[-81.657168,35.202456],[-81.656093,35.201917],[-81.654272,35.201437]]},"properties":{"stream_order":6,"shape_length":0.008348224600819867}},{"type":"Feature","id":12034579,"geometry":{"type":"LineString","coordinates":[[-81.712998,35.288516],[-81.712859,35.288516],[-81.71216,35.288105],[-81.711685,35.287945],[-81.711322,35.287922],[-81.710763,35.288106],[-81.710149,35.288198],[-81.709562,35.287878],[-81.70878,35.287741],[-81.707746,35.287009],[-81.706908,35.286918],[-81.706544,35.286803],[-81.705929,35.286346],[-81.705845,35.28575],[-81.705593,35.285453],[-81.70305,35.284218],[-81.702771,35.283966],[-81.702798,35.2836],[-81.702993,35.282935],[-81.702993,35.282386],[-81.702657,35.282065],[-81.702572,35.281012],[-81.702376,35.280279],[-81.701789,35.279684],[-81.701733,35.278814],[-81.701621,35.278631],[-81.701174,35.278356],[-81.699581,35.277739],[-81.699218,35.277441],[-81.699078,35.27696],[-81.698575,35.276686],[-81.697625,35.27648],[-81.697429,35.276274],[-81.697289,35.275816],[-81.6974,35.27545],[-81.697344,35.274969],[-81.698404,35.273182],[-81.698487,35.272746],[-81.698292,35.272426],[-81.697649,35.271991],[-81.696894,35.271488],[-81.696782,35.271282],[-81.696754,35.270434],[-81.696446,35.270045],[-81.696278,35.269083],[-81.69597,35.268854],[-81.695049,35.268672],[-81.694685,35.268397],[-81.694322,35.267687],[-81.694265,35.267229],[-81.694321,35.267046],[-81.694684,35.266725],[-81.695857,35.266541],[-81.696247,35.266312],[-81.696415,35.266106],[-81.696415,35.265831],[-81.696303,35.265625],[-81.695772,35.26519],[-81.695604,35.264847],[-81.695185,35.264664],[-81.694933,35.264458],[-81.694933,35.26432],[-81.695045,35.264206],[-81.696189,35.263655],[-81.696357,35.263403],[-81.696384,35.262991]]},"properties":{"stream_order":1,"shape_length":0.04152534862045922}},{"type":"Feature","id":12034727,"geometry":{"type":"LineString","coordinates":[[-81.888,35.207611],[-81.887944,35.207382],[-81.887498,35.206901],[-81.886995,35.206237],[-81.886939,35.205504],[-81.887218,35.203809],[-81.887525,35.202847],[-81.887608,35.201885],[-81.887524,35.201427],[-81.887301,35.201015],[-81.886687,35.200557],[-81.88585,35.200259],[-81.88373,35.199916],[-81.881832,35.199779],[-81.880549,35.199619],[-81.879042,35.19923]]},"properties":{"stream_order":6,"shape_length":0.01564113459623511}},{"type":"Feature","id":12034503,"geometry":{"type":"LineString","coordinates":[[-81.694671,35.3167],[-81.694643,35.316562],[-81.694866,35.316218]]},"properties":{"stream_order":3,"shape_length":0.0005501223413831338}},{"type":"Feature","id":12034773,"geometry":{"type":"LineString","coordinates":[[-81.78425,35.183857],[-81.784836,35.184155],[-81.786314,35.184591],[-81.786983,35.184958],[-81.787373,35.185325],[-81.787707,35.185944],[-81.788736,35.189013],[-81.789153,35.190617],[-81.789348,35.191006],[-81.790463,35.192106],[-81.791131,35.194053],[-81.791354,35.194328],[-81.791409,35.194557],[-81.792524,35.195978],[-81.793973,35.197697],[-81.794754,35.198155],[-81.795451,35.198774],[-81.795785,35.199759],[-81.796007,35.200148],[-81.796565,35.20063],[-81.796843,35.201202],[-81.796871,35.201912],[-81.797066,35.202187],[-81.797846,35.202829],[-81.798654,35.204112],[-81.798849,35.204822],[-81.798709,35.205188],[-81.798318,35.205692],[-81.798374,35.205944],[-81.799238,35.206448],[-81.799573,35.207021],[-81.799656,35.207571],[-81.799767,35.207777],[-81.800492,35.20835],[-81.800688,35.208625],[-81.800575,35.209518]]},"properties":{"stream_order":1,"shape_length":0.03271161601596984}},{"type":"Feature","id":12034665,"geometry":{"type":"LineString","coordinates":[[-81.994725,35.221858],[-81.993636,35.221012],[-81.993021,35.220715],[-81.991821,35.220465],[-81.989923,35.220398],[-81.989197,35.22049],[-81.987859,35.221156],[-81.986995,35.221821],[-81.986494,35.22276],[-81.986384,35.223951],[-81.985827,35.225143],[-81.984656,35.225762],[-81.984405,35.226014],[-81.982679,35.228833],[-81.9819,35.230986],[-81.981677,35.231307],[-81.981148,35.231766],[-81.980702,35.232682],[-81.980089,35.233255],[-81.979504,35.233989],[-81.978807,35.234676],[-81.978055,35.235982],[-81.977108,35.23722],[-81.976745,35.237541],[-81.975824,35.237885],[-81.975015,35.237863],[-81.974596,35.23752],[-81.974511,35.237108],[-81.974064,35.236353],[-81.972751,35.235529],[-81.971828,35.23427],[-81.971046,35.233561],[-81.970794,35.233218],[-81.970654,35.232852],[-81.970375,35.232554],[-81.969872,35.232303],[-81.969285,35.231639],[-81.968754,35.231456],[-81.967805,35.231251],[-81.966856,35.230862],[-81.965963,35.230886],[-81.965432,35.231047],[-81.96507,35.231413],[-81.964792,35.231917],[-81.964681,35.232673],[-81.964458,35.23304],[-81.96404,35.233407],[-81.963426,35.233613],[-81.962728,35.233637],[-81.96217,35.233523],[-81.961108,35.23263],[-81.960186,35.231623],[-81.959823,35.231372],[-81.958901,35.23096],[-81.95756,35.229335],[-81.957084,35.228649],[-81.957,35.227916],[-81.956804,35.227664],[-81.956245,35.227161],[-81.95577,35.226382],[-81.955016,35.225558],[-81.954206,35.225055],[-81.952195,35.224095],[-81.949962,35.223569],[-81.948203,35.222792],[-81.947142,35.2219],[-81.946388,35.221511],[-81.945187,35.221099],[-81.944071,35.220596],[-81.943345,35.22039],[-81.94234,35.2203],[-81.941279,35.220369],[-81.940917,35.220484],[-81.940052,35.221034],[-81.939466,35.221057],[-81.939019,35.220851],[-81.938405,35.220371],[-81.937735,35.220096],[-81.936563,35.220074],[-81.935363,35.219754],[-81.934832,35.219479],[-81.934329,35.219068],[-81.933269,35.21877],[-81.932878,35.218748],[-81.932711,35.218862],[-81.932711,35.219229],[-81.932907,35.219549],[-81.932823,35.220397],[-81.933969,35.221587],[-81.934165,35.222366],[-81.934137,35.222938],[-81.933998,35.223442],[-81.934054,35.224175],[-81.934362,35.22493],[-81.934585,35.225136],[-81.934586,35.225228],[-81.935144,35.225617],[-81.935256,35.226052],[-81.935089,35.226396],[-81.934447,35.227083],[-81.93414,35.227083],[-81.933052,35.226763],[-81.932549,35.226764],[-81.932103,35.226947],[-81.932075,35.227061]]},"properties":{"stream_order":1,"shape_length":0.09437744970255958}},{"type":"Feature","id":12034635,"geometry":{"type":"LineString","coordinates":[[-81.732897,35.228936],[-81.732811,35.227333],[-81.732643,35.22699],[-81.732167,35.226463],[-81.731469,35.225937]]},"properties":{"stream_order":1,"shape_length":0.0035712838937801902}},{"type":"Feature","id":12034513,"geometry":{"type":"LineString","coordinates":[[-81.905841,35.322783],[-81.905701,35.32276],[-81.903437,35.321203],[-81.903157,35.320837],[-81.90271,35.319577],[-81.90243,35.318455],[-81.902262,35.318318],[-81.902122,35.317951],[-81.902094,35.317058],[-81.901982,35.316508],[-81.901647,35.315776],[-81.90064,35.314562],[-81.899634,35.313692],[-81.899187,35.312753],[-81.898768,35.312456],[-81.898544,35.311997],[-81.898237,35.311791],[-81.895443,35.311242],[-81.894716,35.310968],[-81.894269,35.310579],[-81.893906,35.310075],[-81.893347,35.30964],[-81.893319,35.309479]]},"properties":{"stream_order":1,"shape_length":0.0197623136713131}},{"type":"Feature","id":12034819,"geometry":{"type":"LineString","coordinates":[[-81.832411,35.157474],[-81.833025,35.157681],[-81.834809,35.158964],[-81.835088,35.159307],[-81.83531,35.159834],[-81.835338,35.160338],[-81.835533,35.16114],[-81.835951,35.161804],[-81.836258,35.162102],[-81.836425,35.162491],[-81.836536,35.163865],[-81.836786,35.164987],[-81.83687,35.165056],[-81.836898,35.165308],[-81.836981,35.165377],[-81.837121,35.166064],[-81.837092,35.166659],[-81.836953,35.167484],[-81.837259,35.168079],[-81.837398,35.168629],[-81.837426,35.169499],[-81.837565,35.169843],[-81.838151,35.170393],[-81.839517,35.17108],[-81.839684,35.171263],[-81.839907,35.171951],[-81.839991,35.172912],[-81.840548,35.173554],[-81.841022,35.175317],[-81.841802,35.17589],[-81.841886,35.176371],[-81.842472,35.176852],[-81.842583,35.17715],[-81.842471,35.177333],[-81.840881,35.178524],[-81.840853,35.178982],[-81.841689,35.180035],[-81.84208,35.1807],[-81.842191,35.181158]]},"properties":{"stream_order":1,"shape_length":0.02915951030340217}},{"type":"Feature","id":12034767,"geometry":{"type":"LineString","coordinates":[[-81.838284,35.186814],[-81.838897,35.188096],[-81.838897,35.188257],[-81.83898,35.188303],[-81.839092,35.189265],[-81.838896,35.189631],[-81.838115,35.190203],[-81.837194,35.190684],[-81.83485,35.192195],[-81.834627,35.192493],[-81.834654,35.192974],[-81.834459,35.193294],[-81.834514,35.193821],[-81.834821,35.194416],[-81.834821,35.195241],[-81.834709,35.195424],[-81.833955,35.195882],[-81.833481,35.196523],[-81.8327,35.196729],[-81.83256,35.196981],[-81.832588,35.197553],[-81.832783,35.198172],[-81.832726,35.199042],[-81.832531,35.1995],[-81.83228,35.199638],[-81.831638,35.199637],[-81.830773,35.199133],[-81.828681,35.198514],[-81.828207,35.198606],[-81.827928,35.198995],[-81.827843,35.199819],[-81.827983,35.200117],[-81.828262,35.2003],[-81.829127,35.200507],[-81.829461,35.200713],[-81.829824,35.201171],[-81.830019,35.201675],[-81.83013,35.202362],[-81.830464,35.203301],[-81.830576,35.20408],[-81.83024,35.204652],[-81.82985,35.204607],[-81.828957,35.204079],[-81.828232,35.203507],[-81.827814,35.203369],[-81.827311,35.203415],[-81.827116,35.203667],[-81.827198,35.206575],[-81.827281,35.206987],[-81.82717,35.207354]]},"properties":{"stream_order":2,"shape_length":0.036136948032122945}},{"type":"Feature","id":12035509,"geometry":{"type":"LineString","coordinates":[[-81.731469,35.225937],[-81.731374,35.225833],[-81.731049,35.225188],[-81.731173,35.224525],[-81.729918,35.223152],[-81.729659,35.222434],[-81.729622,35.222412]]},"properties":{"stream_order":1,"shape_length":0.004204222839997238}},{"type":"Feature","id":12034707,"geometry":{"type":"LineString","coordinates":[[-81.888168,35.211733],[-81.888252,35.21116],[-81.887861,35.210702],[-81.887833,35.21013],[-81.888028,35.208939],[-81.887945,35.208595],[-81.887917,35.207771],[-81.888,35.207611]]},"properties":{"stream_order":1,"shape_length":0.004320065010416706}},{"type":"Feature","id":12035381,"geometry":{"type":"LineString","coordinates":[[-81.760558,35.386017],[-81.758098,35.385076],[-81.757009,35.384273],[-81.756394,35.383906],[-81.753543,35.382644],[-81.752509,35.382414],[-81.752202,35.382024],[-81.751531,35.381589],[-81.750777,35.38145],[-81.749817,35.380964],[-81.749201,35.38069],[-81.748333,35.379981],[-81.748165,35.379683],[-81.748136,35.378836],[-81.747912,35.378538],[-81.747883,35.37808],[-81.747575,35.377577],[-81.747573,35.376867],[-81.747433,35.376546],[-81.746957,35.375997],[-81.746817,35.375585],[-81.746564,35.375127],[-81.746312,35.374898],[-81.745639,35.373548],[-81.745611,35.373296],[-81.745386,35.372632],[-81.745022,35.372289],[-81.744491,35.372152],[-81.743708,35.372359],[-81.743456,35.372336],[-81.741609,35.370918],[-81.741244,35.370415],[-81.741188,35.370117],[-81.740543,35.368492],[-81.739646,35.367118],[-81.739506,35.366775],[-81.739198,35.366546],[-81.739058,35.366294],[-81.738134,35.365402],[-81.738104,35.364463],[-81.737964,35.364188],[-81.7376,35.363799],[-81.737181,35.36364],[-81.736482,35.363663],[-81.736202,35.363526],[-81.735838,35.363206],[-81.734747,35.362909],[-81.734188,35.36252],[-81.733237,35.3622],[-81.732733,35.361789],[-81.732313,35.361285],[-81.732257,35.361102],[-81.731697,35.360347],[-81.731724,35.360255],[-81.730856,35.358951],[-81.72968,35.357692],[-81.729679,35.356593],[-81.729398,35.355906],[-81.729342,35.355471],[-81.730123,35.354531],[-81.730207,35.354302],[-81.730123,35.353935],[-81.729619,35.353409],[-81.729311,35.353043],[-81.729253,35.351921],[-81.729169,35.351783],[-81.728498,35.351532],[-81.728274,35.351349],[-81.728357,35.350273],[-81.728272,35.350021],[-81.728132,35.349906],[-81.726566,35.349358],[-81.726371,35.349175],[-81.726342,35.3489],[-81.726566,35.348694],[-81.728382,35.347891],[-81.728717,35.347616],[-81.728968,35.347272],[-81.728995,35.346791],[-81.728351,35.345623],[-81.728321,35.34457],[-81.729939,35.341431],[-81.729854,35.341042],[-81.729965,35.340263],[-81.729853,35.340171],[-81.728595,35.339989],[-81.727002,35.34022],[-81.726694,35.339945],[-81.726582,35.339281],[-81.726302,35.339029],[-81.726301,35.338686],[-81.727139,35.337929],[-81.727278,35.337631],[-81.727194,35.337196],[-81.727054,35.33699],[-81.726718,35.336853],[-81.725796,35.336831],[-81.72546,35.336694],[-81.725041,35.336305],[-81.7249,35.335618],[-81.724704,35.335],[-81.723864,35.334267],[-81.723752,35.334061],[-81.72364,35.333397],[-81.72308,35.332871],[-81.72308,35.332711],[-81.722968,35.332596],[-81.72157,35.332391],[-81.721263,35.332483],[-81.720844,35.332965],[-81.720593,35.333056],[-81.720006,35.33308],[-81.71942,35.333378],[-81.719084,35.333424],[-81.718609,35.333241],[-81.717435,35.333494],[-81.7171,35.333334],[-81.716596,35.33267],[-81.716623,35.331548],[-81.716483,35.331273],[-81.715812,35.331045],[-81.715168,35.330725],[-81.714413,35.330084],[-81.714329,35.329924]]},"properties":{"stream_order":1,"shape_length":0.09233052376225732}},{"type":"Feature","id":12034741,"geometry":{"type":"LineString","coordinates":[[-81.969035,35.210089],[-81.968449,35.210089],[-81.967724,35.21025],[-81.966971,35.210525],[-81.966218,35.210961],[-81.964462,35.212634],[-81.963877,35.213093],[-81.962956,35.213254],[-81.962203,35.213621],[-81.961004,35.214584],[-81.95986,35.214631],[-81.959023,35.215364],[-81.958326,35.215456],[-81.95746,35.215136],[-81.955003,35.213512],[-81.953831,35.213192],[-81.953412,35.212986],[-81.952742,35.212414],[-81.952295,35.2123],[-81.951793,35.212278],[-81.951318,35.21237],[-81.950732,35.212393],[-81.950481,35.212553],[-81.94931,35.212966],[-81.948835,35.212669],[-81.947801,35.211341],[-81.946238,35.21022],[-81.945623,35.209259],[-81.945009,35.20887],[-81.944925,35.208618],[-81.944422,35.208206],[-81.943668,35.207977],[-81.943194,35.207588],[-81.942161,35.207177],[-81.940961,35.207086],[-81.940514,35.206926],[-81.94004,35.206606],[-81.939369,35.205553],[-81.938894,35.205186],[-81.937583,35.204592],[-81.936187,35.20418],[-81.935657,35.204135],[-81.933369,35.204136],[-81.931611,35.204412],[-81.929826,35.204917],[-81.928682,35.205032],[-81.927956,35.204986],[-81.927315,35.204849],[-81.926617,35.2043],[-81.92603,35.203659],[-81.925528,35.203476],[-81.924579,35.203614],[-81.92377,35.203271],[-81.922514,35.203432],[-81.92204,35.202997],[-81.921816,35.201989],[-81.921621,35.201852],[-81.92123,35.201829],[-81.920532,35.201967],[-81.919277,35.202036],[-81.91897,35.201945],[-81.91883,35.201761],[-81.918774,35.200845],[-81.918523,35.200685],[-81.916821,35.200823],[-81.916458,35.200755],[-81.916011,35.200457],[-81.915621,35.199931],[-81.914672,35.199473],[-81.913862,35.198832],[-81.91216,35.198077],[-81.911211,35.197802],[-81.910653,35.197825],[-81.91043,35.198077],[-81.909593,35.198627],[-81.909259,35.199337],[-81.908841,35.199979],[-81.908478,35.200185],[-81.908283,35.200185],[-81.907222,35.198995],[-81.905854,35.197942],[-81.905157,35.197736],[-81.902255,35.197462],[-81.901892,35.197599],[-81.901725,35.197782],[-81.901558,35.199271],[-81.901363,35.199454],[-81.900749,35.1995],[-81.899047,35.198814],[-81.897708,35.198539],[-81.89715,35.198517],[-81.896257,35.198723],[-81.895531,35.198723],[-81.893411,35.197441]]},"properties":{"stream_order":1,"shape_length":0.08945186194273355}},{"type":"Feature","id":12035537,"geometry":{"type":"LineString","coordinates":[[-81.753473,35.218093],[-81.748554,35.218782]]},"properties":{"stream_order":6,"shape_length":0.00496701187442221}},{"type":"Feature","id":12034815,"geometry":{"type":"LineString","coordinates":[[-81.749227,35.158586],[-81.74948,35.159616],[-81.74951,35.161173],[-81.748788,35.162915],[-81.748929,35.163739],[-81.748735,35.164793],[-81.74829,35.165389],[-81.747705,35.16571],[-81.746478,35.166147],[-81.746032,35.166536],[-81.745281,35.167522],[-81.743888,35.168875],[-81.743276,35.170112],[-81.742248,35.172655],[-81.741916,35.174373],[-81.741917,35.175083],[-81.742142,35.17648],[-81.742143,35.177144],[-81.741168,35.178268],[-81.740974,35.17884],[-81.740948,35.179985],[-81.740837,35.180466],[-81.740866,35.181154],[-81.74123,35.181886],[-81.741259,35.183077],[-81.742154,35.184565],[-81.74249,35.185664],[-81.742548,35.186878],[-81.742326,35.187588],[-81.742494,35.188069],[-81.742383,35.188527],[-81.74177,35.189398],[-81.74074,35.190658],[-81.740741,35.191139],[-81.74102,35.19146],[-81.741049,35.192101],[-81.741189,35.19233],[-81.742613,35.193359],[-81.743005,35.194206],[-81.742922,35.194778],[-81.7427,35.19526],[-81.742728,35.195741],[-81.743147,35.195946],[-81.74365,35.196129],[-81.743901,35.196335],[-81.744013,35.196655],[-81.74393,35.197045],[-81.742649,35.198627],[-81.741869,35.199383],[-81.74106,35.199453],[-81.740251,35.199774],[-81.738355,35.201035],[-81.73738,35.20154],[-81.736878,35.20193],[-81.736405,35.202847],[-81.736239,35.203717],[-81.736102,35.205435],[-81.735183,35.207268],[-81.734431,35.208391],[-81.734432,35.208872],[-81.735717,35.209879],[-81.735885,35.210451],[-81.73664,35.211137],[-81.736948,35.211893],[-81.737005,35.212809],[-81.736615,35.213244],[-81.735554,35.213268],[-81.735331,35.213383],[-81.735331,35.213612],[-81.735555,35.21391],[-81.735555,35.214093],[-81.737427,35.215557],[-81.737511,35.215763],[-81.7374,35.215969],[-81.737149,35.216153],[-81.735865,35.216016],[-81.733129,35.214965],[-81.732626,35.214851],[-81.732068,35.214966],[-81.73087,35.216342],[-81.730898,35.216708],[-81.731569,35.217028],[-81.731541,35.217303],[-81.729225,35.217832],[-81.727943,35.218635],[-81.727078,35.218933]]},"properties":{"stream_order":1,"shape_length":0.08513503688695515}},{"type":"Feature","id":166756450,"geometry":{"type":"LineString","coordinates":[[-81.694441,35.215157],[-81.688857,35.214698],[-81.685798,35.213956],[-81.683191,35.212918],[-81.682058,35.212335],[-81.681293,35.211691],[-81.680041,35.209674],[-81.679376,35.207657]]},"properties":{"stream_order":6,"shape_length":0.01832814650500544}},{"type":"Feature","id":12035525,"geometry":{"type":"LineString","coordinates":[[-81.697685,35.212722],[-81.697379,35.21294],[-81.696712,35.213808],[-81.694441,35.215157]]},"properties":{"stream_order":6,"shape_length":0.004111208411233549}},{"type":"Feature","id":12034887,"geometry":{"type":"LineString","coordinates":[[-81.80139,35.138177],[-81.801501,35.138361],[-81.802365,35.139002],[-81.802894,35.1393],[-81.803814,35.140102],[-81.804454,35.141042],[-81.804538,35.141362],[-81.804509,35.142485],[-81.803727,35.143881],[-81.80314,35.145209],[-81.802218,35.148232],[-81.802217,35.148736],[-81.802384,35.14924],[-81.802356,35.149629],[-81.802021,35.15027],[-81.800961,35.151048],[-81.800681,35.151323],[-81.800625,35.151964],[-81.800206,35.152674],[-81.799425,35.153223],[-81.799006,35.154208],[-81.798782,35.154459],[-81.796885,35.155443],[-81.796522,35.155741],[-81.796271,35.156084],[-81.795628,35.15755],[-81.793813,35.16032],[-81.793394,35.160869],[-81.792334,35.161624],[-81.792026,35.162265],[-81.791636,35.162517],[-81.789265,35.162538],[-81.788791,35.162675],[-81.788344,35.163042],[-81.788148,35.163614],[-81.787952,35.165148],[-81.787505,35.165652],[-81.787309,35.166385],[-81.787225,35.166774],[-81.786918,35.167186],[-81.786694,35.167277],[-81.785272,35.167437],[-81.783849,35.167825],[-81.7829,35.168283],[-81.779943,35.168922],[-81.77799,35.169493]]},"properties":{"stream_order":1,"shape_length":0.04791758611180181}},{"type":"Feature","id":12035561,"geometry":{"type":"LineString","coordinates":[[-81.668467,35.202731],[-81.66697,35.202167],[-81.66468,35.200937],[-81.663038,35.200735],[-81.662092,35.201297]]},"properties":{"stream_order":6,"shape_length":0.00695414586978903}},{"type":"Feature","id":12034539,"geometry":{"type":"LineString","coordinates":[[-81.929794,35.289794],[-81.927279,35.288879],[-81.925966,35.28817],[-81.923982,35.287506],[-81.922474,35.287186],[-81.920798,35.286912],[-81.91915,35.286501],[-81.918982,35.286386]]},"properties":{"stream_order":1,"shape_length":0.011401983700186866}},{"type":"Feature","id":12034501,"geometry":{"type":"LineString","coordinates":[[-81.709019,35.355945],[-81.709045,35.354594],[-81.709883,35.353403],[-81.709994,35.353059],[-81.709993,35.352463],[-81.709741,35.351754],[-81.709377,35.351227],[-81.709265,35.35093],[-81.709208,35.349853],[-81.708536,35.348525],[-81.708144,35.347861],[-81.707556,35.347358],[-81.706493,35.34674],[-81.70571,35.346122],[-81.70543,35.345756],[-81.70515,35.345161],[-81.705009,35.343535],[-81.704813,35.343283],[-81.704393,35.343054],[-81.703974,35.343032],[-81.703387,35.343467],[-81.702996,35.343582],[-81.702241,35.343651],[-81.701934,35.343537],[-81.701626,35.343308],[-81.700815,35.342232],[-81.700703,35.341935],[-81.700199,35.341339],[-81.700002,35.340011],[-81.699888,35.337401],[-81.699104,35.336806],[-81.699104,35.336599],[-81.700388,35.334446],[-81.700667,35.333781],[-81.700722,35.333415],[-81.700582,35.333117],[-81.699911,35.332591],[-81.699771,35.332247],[-81.699658,35.33124],[-81.699435,35.331034],[-81.699015,35.330988],[-81.698596,35.331126],[-81.698233,35.331126],[-81.698009,35.330966],[-81.697953,35.330691],[-81.698288,35.330118],[-81.698288,35.329775],[-81.698148,35.329683],[-81.697673,35.329638],[-81.697002,35.329936],[-81.69622,35.330028],[-81.696052,35.329982],[-81.695437,35.329525],[-81.695241,35.329136],[-81.695157,35.328655],[-81.695379,35.327761],[-81.695435,35.327051],[-81.695211,35.326731],[-81.694679,35.326342],[-81.692946,35.325564],[-81.692499,35.325244],[-81.692331,35.324946],[-81.692275,35.324305],[-81.692721,35.323274],[-81.693167,35.32261],[-81.693781,35.322014],[-81.694005,35.321647],[-81.694452,35.321235],[-81.695569,35.32073],[-81.696127,35.320386],[-81.69663,35.31963],[-81.696601,35.318828],[-81.694923,35.316791],[-81.694671,35.3167]]},"properties":{"stream_order":2,"shape_length":0.05570314451480796}},{"type":"Feature","id":12035543,"geometry":{"type":"LineString","coordinates":[[-81.707738,35.21432],[-81.707376,35.214298],[-81.706112,35.213873],[-81.701999,35.211608],[-81.699889,35.211214],[-81.698425,35.211848],[-81.69835,35.212246],[-81.697685,35.212722]]},"properties":{"stream_order":6,"shape_length":0.011357020767113202}},{"type":"Feature","id":12035529,"geometry":{"type":"LineString","coordinates":[[-81.709853,35.214069],[-81.70982,35.214142],[-81.709821,35.214258]]},"properties":{"stream_order":1,"shape_length":0.0001961384932639316}},{"type":"Feature","id":12035519,"geometry":{"type":"LineString","coordinates":[[-81.727078,35.218933],[-81.726971,35.218863],[-81.72691,35.218906]]},"properties":{"stream_order":1,"shape_length":0.000202566658885586}},{"type":"Feature","id":12034743,"geometry":{"type":"LineString","coordinates":[[-81.893411,35.197441],[-81.891876,35.197281],[-81.890341,35.196732],[-81.889839,35.196663],[-81.88917,35.196755],[-81.888026,35.196045],[-81.887663,35.196068],[-81.886603,35.196801],[-81.885654,35.197717],[-81.884036,35.198473],[-81.883367,35.198473],[-81.882948,35.198313],[-81.882529,35.197924],[-81.882362,35.197534],[-81.882334,35.196618],[-81.881943,35.196229],[-81.881664,35.195657],[-81.881469,35.195588],[-81.880018,35.195771],[-81.879739,35.195886],[-81.879014,35.196985],[-81.878037,35.19765],[-81.87748,35.198451]]},"properties":{"stream_order":2,"shape_length":0.020122603333671853}},{"type":"Feature","id":12034341,"geometry":{"type":"LineString","coordinates":[[-81.765581,35.394106],[-81.765246,35.393511],[-81.765108,35.391976],[-81.764857,35.391495],[-81.764438,35.390991],[-81.763993,35.389181],[-81.763909,35.389135],[-81.763882,35.388883],[-81.762849,35.387233],[-81.762179,35.38666],[-81.761089,35.386338],[-81.760558,35.386017]]},"properties":{"stream_order":1,"shape_length":0.010220596769169291}},{"type":"Feature","id":12034563,"geometry":{"type":"LineString","coordinates":[[-81.893319,35.309479],[-81.892648,35.309342],[-81.892369,35.309205],[-81.892425,35.308907],[-81.892536,35.308334],[-81.89276,35.307968],[-81.892648,35.307693],[-81.890999,35.306365],[-81.890413,35.306067],[-81.889938,35.305701],[-81.888624,35.304075],[-81.888038,35.303777],[-81.887814,35.303549],[-81.887143,35.302495],[-81.885635,35.300755],[-81.885383,35.300274],[-81.885355,35.299793],[-81.886221,35.298556],[-81.886109,35.298121],[-81.885774,35.297571],[-81.88407,35.295808],[-81.883818,35.295373],[-81.883902,35.293426],[-81.88365,35.29267],[-81.883287,35.292441],[-81.882701,35.29235],[-81.88217,35.29267],[-81.881416,35.292693],[-81.880494,35.292533],[-81.879488,35.292098],[-81.877254,35.29077],[-81.876751,35.290358],[-81.876555,35.29006],[-81.876555,35.289923],[-81.876332,35.289556],[-81.875885,35.289167],[-81.875494,35.288525],[-81.875438,35.287999],[-81.875522,35.287426],[-81.874824,35.287266],[-81.8746,35.287243],[-81.874265,35.286945],[-81.874209,35.286556],[-81.874293,35.286441],[-81.874824,35.286235],[-81.87527,35.286212],[-81.875773,35.286006],[-81.875885,35.285869],[-81.875913,35.285205],[-81.875801,35.284953],[-81.875606,35.284815],[-81.875466,35.284541],[-81.875466,35.283372],[-81.875857,35.28264],[-81.875969,35.281746],[-81.876052,35.279937],[-81.876248,35.279525],[-81.877114,35.278815],[-81.877896,35.278311],[-81.878063,35.278013],[-81.878063,35.277463],[-81.877672,35.277051],[-81.876276,35.276685],[-81.875494,35.276341],[-81.874824,35.275906],[-81.874628,35.275586],[-81.874405,35.274418],[-81.873986,35.274028],[-81.873818,35.27396]]},"properties":{"stream_order":2,"shape_length":0.052223278611693305}},{"type":"Feature","id":12035533,"geometry":{"type":"LineString","coordinates":[[-81.74837,35.218501],[-81.748554,35.218782]]},"properties":{"stream_order":1,"shape_length":0.0003356829167140961}},{"type":"Feature","id":12034471,"geometry":{"type":"LineString","coordinates":[[-81.68381,35.328684],[-81.684285,35.328203],[-81.685039,35.327813],[-81.685235,35.327607],[-81.685234,35.32708],[-81.685485,35.326461],[-81.685541,35.325912],[-81.685429,35.325522],[-81.685065,35.325156],[-81.684506,35.324927],[-81.684227,35.324676],[-81.684087,35.324264]]},"properties":{"stream_order":2,"shape_length":0.005892622724095197}},{"type":"Feature","id":12035395,"geometry":{"type":"LineString","coordinates":[[-81.839953,35.252335],[-81.837943,35.251533],[-81.837273,35.2508],[-81.836807,35.250115],[-81.836193,35.249519],[-81.835607,35.24913],[-81.835244,35.24842],[-81.834575,35.246748],[-81.833961,35.246038],[-81.83371,35.245648],[-81.833431,35.244824],[-81.832929,35.24416],[-81.831478,35.242968],[-81.830781,35.241777],[-81.829916,35.241067],[-81.829888,35.240632],[-81.830251,35.239647],[-81.830475,35.238365],[-81.830392,35.237907],[-81.829331,35.236898],[-81.828997,35.236257],[-81.829053,35.235295],[-81.829585,35.23312],[-81.829697,35.232066],[-81.830283,35.231494],[-81.831037,35.231173],[-81.831651,35.231082],[-81.832349,35.231265],[-81.832656,35.231243],[-81.832823,35.231128],[-81.833186,35.230487],[-81.833912,35.230167],[-81.834387,35.229686],[-81.834443,35.229342],[-81.834276,35.228815],[-81.832742,35.226113],[-81.832268,35.224807],[-81.831766,35.224074],[-81.831766,35.223959],[-81.83132,35.222471],[-81.831013,35.222104],[-81.830539,35.221921],[-81.829478,35.221783],[-81.828948,35.221302],[-81.827721,35.22121],[-81.827358,35.220912],[-81.826996,35.220042],[-81.826772,35.21979],[-81.825768,35.219331],[-81.824736,35.218369],[-81.823397,35.217819],[-81.822699,35.217292],[-81.822392,35.216857],[-81.822337,35.216582],[-81.82203,35.216147],[-81.821612,35.215963],[-81.820384,35.215871],[-81.819993,35.215734],[-81.819129,35.21468],[-81.81871,35.214634],[-81.818543,35.21484],[-81.818375,35.215527],[-81.818095,35.215847],[-81.817397,35.216191],[-81.817091,35.21619],[-81.817035,35.216076],[-81.815808,35.215045],[-81.815138,35.214357],[-81.814776,35.213624],[-81.814637,35.213487],[-81.814637,35.21335],[-81.813047,35.212021],[-81.81288,35.211769],[-81.812768,35.211494],[-81.811848,35.210944]]},"properties":{"stream_order":1,"shape_length":0.06486638113354903}},{"type":"Feature","id":12034713,"geometry":{"type":"LineString","coordinates":[[-81.82717,35.207354],[-81.825384,35.207079],[-81.824045,35.206803],[-81.823096,35.206368],[-81.821227,35.205336],[-81.81986,35.204786],[-81.819526,35.20474],[-81.8188,35.204809],[-81.818381,35.20506],[-81.817348,35.206869],[-81.816929,35.207625],[-81.816147,35.208655],[-81.814779,35.209846],[-81.811932,35.210829],[-81.811848,35.210944]]},"properties":{"stream_order":6,"shape_length":0.018589408754679987}},{"type":"Feature","id":12034709,"geometry":{"type":"LineString","coordinates":[[-81.901118,35.214387],[-81.900894,35.214089],[-81.899303,35.213173],[-81.898578,35.212944],[-81.897378,35.212807],[-81.895173,35.212922],[-81.893164,35.212694],[-81.892773,35.212511],[-81.892271,35.212121],[-81.891433,35.21116],[-81.889814,35.20958],[-81.88934,35.20887],[-81.888307,35.207702],[-81.888,35.207611]]},"properties":{"stream_order":6,"shape_length":0.015743565806595774}},{"type":"Feature","id":12034683,"geometry":{"type":"LineString","coordinates":[[-81.702332,35.227908],[-81.699764,35.227841],[-81.697167,35.227247],[-81.696581,35.226973],[-81.696385,35.226744],[-81.696385,35.2264],[-81.696608,35.226011],[-81.696636,35.225713],[-81.696272,35.225141],[-81.695071,35.224248],[-81.694764,35.223928],[-81.694652,35.223584],[-81.694373,35.223218],[-81.694065,35.223058],[-81.693507,35.222417],[-81.69345,35.221799],[-81.693729,35.221272],[-81.694371,35.221157],[-81.694762,35.221271],[-81.695208,35.221637],[-81.696018,35.221911],[-81.696297,35.222117],[-81.696605,35.222506],[-81.697303,35.223033],[-81.698029,35.223261],[-81.698894,35.223077],[-81.69934,35.222894],[-81.700736,35.222801],[-81.702605,35.222159],[-81.702968,35.22193],[-81.702967,35.221609],[-81.702521,35.221449],[-81.701376,35.22074],[-81.700956,35.220007],[-81.700677,35.219778],[-81.700147,35.219618],[-81.698137,35.219688],[-81.697328,35.219643],[-81.696546,35.219438],[-81.696211,35.219071],[-81.696126,35.217995],[-81.695651,35.217331],[-81.695566,35.21614],[-81.694812,35.215408]]},"properties":{"stream_order":3,"shape_length":0.03543558751332568}},{"type":"Feature","id":12034731,"geometry":{"type":"LineString","coordinates":[[-81.879042,35.19923],[-81.878875,35.199092],[-81.877563,35.198611],[-81.87748,35.198451]]},"properties":{"stream_order":6,"shape_length":0.0017941740253514286}},{"type":"Feature","id":12034547,"geometry":{"type":"LineString","coordinates":[[-81.663652,35.309821],[-81.663903,35.3095],[-81.66407,35.30895],[-81.664741,35.308469],[-81.664741,35.308057],[-81.664601,35.307736],[-81.664572,35.307118],[-81.66474,35.306293],[-81.664991,35.305744],[-81.665019,35.305263],[-81.664851,35.304919],[-81.664851,35.304415],[-81.665018,35.30382],[-81.664543,35.303293],[-81.664403,35.303018],[-81.664403,35.302789],[-81.664654,35.302125],[-81.664654,35.301507],[-81.664262,35.300934],[-81.664262,35.300385],[-81.664652,35.299033],[-81.664708,35.298186],[-81.664596,35.297957],[-81.664707,35.297659],[-81.664651,35.296926],[-81.664399,35.295277],[-81.664873,35.294338],[-81.664873,35.293834],[-81.664789,35.29372],[-81.664733,35.293193],[-81.664817,35.292918],[-81.665291,35.292437],[-81.665543,35.292047],[-81.666464,35.291337],[-81.666771,35.290902],[-81.667246,35.290421],[-81.66772,35.289619],[-81.668055,35.289344],[-81.668921,35.288954],[-81.670401,35.288793],[-81.671491,35.288976],[-81.673502,35.289731],[-81.673698,35.289662],[-81.674089,35.289273],[-81.67515,35.288791],[-81.675708,35.28815],[-81.676099,35.288058],[-81.676462,35.287829],[-81.676546,35.287439],[-81.676098,35.286959],[-81.675986,35.28618],[-81.676182,35.285836],[-81.677019,35.285217],[-81.677186,35.28437],[-81.677744,35.283728],[-81.678247,35.283637],[-81.679085,35.283796],[-81.680202,35.28359],[-81.680845,35.283704],[-81.68118,35.283589],[-81.681962,35.283612]]},"properties":{"stream_order":1,"shape_length":0.04164154812961191}},{"type":"Feature","id":12034545,"geometry":{"type":"LineString","coordinates":[[-81.694866,35.316218],[-81.694978,35.315806],[-81.695005,35.315371],[-81.694893,35.31505],[-81.694027,35.314501],[-81.693803,35.314272],[-81.693774,35.3137],[-81.693131,35.313082],[-81.693103,35.312761],[-81.693242,35.311822],[-81.692598,35.310769],[-81.692347,35.310563],[-81.6919,35.310472],[-81.69095,35.311182],[-81.689637,35.311229],[-81.689469,35.311046],[-81.689385,35.310244],[-81.688826,35.309786],[-81.688742,35.309443],[-81.688825,35.309305],[-81.689635,35.30887],[-81.689747,35.308686],[-81.689802,35.308412],[-81.689635,35.308229],[-81.688712,35.307771],[-81.688069,35.307245],[-81.687929,35.30697],[-81.687203,35.306421],[-81.687063,35.306146],[-81.687006,35.305711],[-81.686838,35.305207],[-81.686391,35.304932],[-81.685525,35.304635],[-81.68491,35.304269],[-81.684658,35.303857],[-81.684546,35.303353],[-81.685216,35.30278],[-81.685439,35.302459],[-81.685439,35.302207],[-81.685104,35.302024],[-81.684852,35.301681],[-81.684098,35.301292],[-81.683846,35.300811],[-81.68256,35.300216],[-81.682169,35.299781],[-81.682168,35.299346],[-81.682587,35.29875],[-81.683592,35.297765],[-81.68362,35.297032],[-81.682893,35.296323],[-81.682725,35.296048],[-81.682697,35.29559],[-81.682836,35.295315],[-81.68373,35.294467],[-81.683785,35.294032],[-81.684036,35.293597],[-81.684008,35.293345],[-81.683309,35.29291],[-81.683225,35.292223],[-81.683532,35.291925],[-81.684035,35.291673],[-81.68437,35.291329],[-81.684425,35.290779],[-81.684341,35.290711],[-81.684201,35.290023],[-81.684396,35.289588],[-81.684396,35.289268],[-81.684033,35.289062],[-81.682078,35.289223],[-81.681379,35.289086],[-81.680988,35.288903],[-81.680429,35.288354],[-81.679954,35.288125],[-81.679619,35.287827],[-81.679618,35.287255],[-81.67973,35.286819],[-81.681906,35.284001],[-81.681962,35.283612]]},"properties":{"stream_order":3,"shape_length":0.05023340623150958}},{"type":"Feature","id":12034485,"geometry":{"type":"LineString","coordinates":[[-81.747852,35.32135],[-81.746484,35.321856],[-81.745367,35.322521],[-81.744836,35.322705],[-81.743523,35.322775],[-81.743048,35.322981],[-81.74263,35.323623],[-81.742408,35.324608],[-81.741683,35.325411],[-81.74104,35.325709],[-81.740537,35.325801],[-81.739811,35.325756],[-81.73886,35.325574],[-81.737994,35.3253],[-81.737043,35.32482],[-81.735729,35.324363],[-81.735393,35.324134],[-81.735197,35.323791],[-81.734358,35.323265],[-81.733715,35.322784],[-81.733351,35.32267],[-81.732373,35.32258],[-81.731422,35.322054],[-81.730612,35.322077],[-81.729411,35.322307],[-81.728433,35.322354],[-81.728097,35.322446],[-81.727539,35.322905],[-81.727316,35.323615],[-81.727261,35.324371],[-81.727122,35.324623],[-81.726647,35.325012],[-81.726425,35.325768],[-81.726006,35.326089],[-81.725112,35.326205],[-81.724777,35.326342],[-81.724219,35.32703],[-81.723716,35.327053],[-81.722178,35.326161],[-81.721814,35.325749],[-81.720892,35.325842],[-81.720528,35.325682],[-81.720109,35.325659],[-81.71969,35.325774],[-81.719159,35.326049],[-81.718182,35.326829],[-81.717008,35.326715],[-81.716673,35.326807],[-81.716478,35.327013],[-81.715697,35.32864],[-81.715334,35.329167],[-81.714748,35.329672],[-81.714329,35.329924]]},"properties":{"stream_order":1,"shape_length":0.04166257802230427}},{"type":"Feature","id":12034499,"geometry":{"type":"LineString","coordinates":[[-81.684087,35.324264],[-81.684785,35.323988],[-81.685232,35.323622],[-81.685371,35.323209],[-81.685203,35.322431],[-81.685398,35.322064],[-81.68565,35.321858],[-81.686711,35.321651],[-81.687158,35.321491],[-81.687689,35.321009],[-81.688555,35.320711],[-81.690175,35.319496],[-81.690706,35.31945],[-81.691293,35.319656],[-81.691684,35.319656],[-81.692047,35.319175],[-81.692241,35.318258],[-81.692409,35.318121],[-81.693191,35.317891],[-81.693806,35.317593],[-81.694308,35.317181],[-81.694671,35.3167]]},"properties":{"stream_order":2,"shape_length":0.014567691802071746}},{"type":"Feature","id":12034775,"geometry":{"type":"LineString","coordinates":[[-81.66792,35.184113],[-81.668115,35.184503],[-81.668227,35.185236],[-81.668144,35.186198],[-81.667559,35.186999],[-81.667336,35.187824],[-81.667029,35.188443],[-81.666723,35.188717],[-81.666332,35.188878],[-81.664826,35.188878],[-81.664602,35.188947],[-81.664045,35.189474],[-81.663738,35.190184],[-81.663404,35.191788],[-81.663237,35.192154],[-81.662819,35.192727],[-81.662819,35.193597],[-81.662736,35.193666],[-81.662708,35.194032],[-81.66254,35.19433],[-81.662178,35.194628],[-81.661062,35.194812]]},"properties":{"stream_order":1,"shape_length":0.014832442738817753}},{"type":"Feature","id":12035783,"geometry":{"type":"LineString","coordinates":[[-81.715038,35.288996],[-81.712998,35.288516]]},"properties":{"stream_order":1,"shape_length":0.0020953279732262705}},{"type":"Feature","id":12035949,"geometry":{"type":"LineString","coordinates":[[-81.759454,35.222451],[-81.759331,35.222264]]},"properties":{"stream_order":4,"shape_length":0.0002241643657673721}},{"type":"Feature","id":12035539,"geometry":{"type":"LineString","coordinates":[[-81.759331,35.222264],[-81.755998,35.219418],[-81.753473,35.218093]]},"properties":{"stream_order":6,"shape_length":0.007234039068879616}},{"type":"Feature","id":12034813,"geometry":{"type":"LineString","coordinates":[[-81.814617,35.160651],[-81.814533,35.160857],[-81.814561,35.16143],[-81.814756,35.161705],[-81.815648,35.162507],[-81.815787,35.162896],[-81.816177,35.163446],[-81.816623,35.164545],[-81.816705,35.165943],[-81.8169,35.166767],[-81.81768,35.167821],[-81.817931,35.168462],[-81.819101,35.169608],[-81.819798,35.170135],[-81.820997,35.170708],[-81.821555,35.171464],[-81.821694,35.171968],[-81.821777,35.173296],[-81.821888,35.173525],[-81.822223,35.1738],[-81.822808,35.174007],[-81.82451,35.174305],[-81.824928,35.174465],[-81.825597,35.175015],[-81.826127,35.175634],[-81.826907,35.176802],[-81.828747,35.178383],[-81.830476,35.179368],[-81.831089,35.180239],[-81.83134,35.180857],[-81.831786,35.181544],[-81.832651,35.182369],[-81.832929,35.182827],[-81.833403,35.183308],[-81.834128,35.183629],[-81.834909,35.18379],[-81.836109,35.183676],[-81.836444,35.183928],[-81.836611,35.184592],[-81.837559,35.185577],[-81.838144,35.186722],[-81.838284,35.186814]]},"properties":{"stream_order":1,"shape_length":0.03814863454476506}},{"type":"Feature","id":12035511,"geometry":{"type":"LineString","coordinates":[[-81.729284,35.220168],[-81.729141,35.220043],[-81.728871,35.219771]]},"properties":{"stream_order":1,"shape_length":0.0005733554051129736}},{"type":"Feature","id":12034561,"geometry":{"type":"LineString","coordinates":[[-81.898247,35.345893],[-81.897799,35.345687],[-81.897548,35.345481],[-81.896849,35.345252],[-81.896569,35.344909],[-81.895926,35.344497],[-81.895507,35.344016],[-81.895367,35.343352],[-81.895115,35.342871],[-81.894836,35.341336],[-81.894696,35.34113],[-81.894081,35.341016],[-81.893969,35.340924],[-81.893969,35.340718],[-81.894192,35.340237],[-81.894248,35.339619],[-81.893913,35.338611],[-81.893577,35.337855],[-81.891844,35.336688],[-81.890754,35.335726],[-81.888825,35.33307],[-81.888797,35.332909],[-81.888573,35.332634],[-81.888517,35.332428],[-81.887204,35.330413],[-81.886617,35.329909],[-81.885946,35.328833],[-81.88575,35.328329],[-81.885666,35.328283],[-81.884604,35.325581],[-81.884296,35.324092],[-81.883765,35.323108],[-81.883626,35.322741],[-81.883011,35.321825],[-81.881837,35.320383],[-81.881558,35.31981],[-81.880356,35.318596],[-81.879126,35.317108],[-81.878679,35.316718],[-81.877981,35.316535],[-81.877366,35.316535],[-81.876668,35.316696],[-81.876193,35.31697],[-81.875019,35.318459],[-81.874963,35.318688],[-81.874823,35.318711],[-81.873594,35.319559],[-81.872001,35.320154],[-81.871442,35.320681],[-81.871191,35.32107],[-81.870856,35.321391],[-81.870325,35.321574],[-81.869906,35.321597],[-81.868704,35.321207],[-81.868061,35.320956],[-81.86767,35.320658],[-81.867419,35.3202],[-81.866608,35.319467],[-81.865351,35.318734],[-81.864736,35.318276],[-81.864681,35.317886],[-81.864541,35.317635],[-81.863647,35.317085],[-81.863619,35.31665],[-81.864122,35.315986],[-81.864066,35.315619],[-81.863368,35.315001],[-81.863256,35.314817],[-81.8632,35.314359],[-81.863396,35.31413],[-81.864737,35.313398],[-81.865044,35.3131],[-81.865045,35.312344],[-81.86552,35.31168],[-81.867559,35.310466],[-81.867978,35.310077],[-81.868146,35.30971],[-81.868286,35.308909],[-81.868426,35.308657],[-81.868649,35.308474],[-81.870074,35.308107],[-81.870577,35.307443],[-81.870465,35.306962],[-81.869124,35.306],[-81.868817,35.305496],[-81.868314,35.305222],[-81.867839,35.304512],[-81.866638,35.30403],[-81.866359,35.303595],[-81.866303,35.302588],[-81.867029,35.300733],[-81.867029,35.300297],[-81.866918,35.300091],[-81.866415,35.299679],[-81.864934,35.298992],[-81.864096,35.298763],[-81.862895,35.29874],[-81.862113,35.298419],[-81.861638,35.297801],[-81.861638,35.296427],[-81.86189,35.294824],[-81.861946,35.293816],[-81.862449,35.2918],[-81.862477,35.290541],[-81.862394,35.289991],[-81.862338,35.287701],[-81.862506,35.287334],[-81.86312,35.286739],[-81.866109,35.285021],[-81.86678,35.284518],[-81.868372,35.283029],[-81.869433,35.281792],[-81.870131,35.281426],[-81.871919,35.280968],[-81.872366,35.280762],[-81.872533,35.280533],[-81.872729,35.279731],[-81.873204,35.279158],[-81.873455,35.278677],[-81.873455,35.278426],[-81.873008,35.278059],[-81.872282,35.277807],[-81.870774,35.277693],[-81.870439,35.277487],[-81.870439,35.277189],[-81.870551,35.27696],[-81.870662,35.276319],[-81.870942,35.275769],[-81.870998,35.275265],[-81.870914,35.275013],[-81.871054,35.274692],[-81.871389,35.274463],[-81.872003,35.274418],[-81.872841,35.274578],[-81.87312,35.274486],[-81.873818,35.27396]]},"properties":{"stream_order":1,"shape_length":0.1199083695472058}},{"type":"Feature","id":12035809,"geometry":{"type":"LineString","coordinates":[[-81.746996,35.213509],[-81.747923,35.217126]]},"properties":{"stream_order":1,"shape_length":0.003734383124469437}},{"type":"Feature","id":12035559,"geometry":{"type":"LineString","coordinates":[[-81.66179,35.20072],[-81.6618,35.200766],[-81.662092,35.201297]]},"properties":{"stream_order":1,"shape_length":0.0006527969831275379}},{"type":"Feature","id":12034737,"geometry":{"type":"LineString","coordinates":[[-81.87748,35.198451],[-81.875331,35.198085],[-81.874829,35.198177],[-81.873741,35.198657],[-81.871369,35.199963],[-81.870672,35.200123],[-81.869667,35.200101],[-81.867965,35.199894],[-81.865761,35.199482],[-81.86484,35.199642],[-81.863529,35.200329],[-81.862497,35.200307],[-81.861409,35.200123],[-81.858981,35.199528],[-81.857419,35.199321],[-81.856275,35.199367],[-81.855215,35.199619],[-81.853457,35.200329],[-81.852508,35.200787],[-81.851643,35.201016],[-81.848127,35.201611],[-81.846648,35.201954],[-81.84623,35.20216],[-81.845811,35.202572],[-81.845141,35.203763],[-81.843997,35.20477],[-81.842825,35.205182],[-81.840815,35.205709]]},"properties":{"stream_order":6,"shape_length":0.0393174694643912}},{"type":"Feature","id":12034401,"geometry":{"type":"LineString","coordinates":[[-81.652155,35.352149],[-81.652966,35.352469],[-81.653805,35.352446],[-81.654168,35.352538],[-81.654755,35.352858],[-81.656041,35.352812],[-81.656628,35.353041],[-81.657215,35.353041],[-81.658501,35.35288],[-81.659899,35.353361],[-81.660598,35.353383],[-81.661856,35.352993],[-81.662834,35.352947],[-81.66426,35.353038],[-81.665071,35.352924],[-81.666161,35.352488],[-81.66781,35.352236],[-81.668397,35.352327],[-81.669655,35.35228],[-81.670046,35.352143],[-81.671331,35.351158],[-81.67203,35.350837],[-81.672393,35.350768]]},"properties":{"stream_order":1,"shape_length":0.021143660156435422}},{"type":"Feature","id":12035521,"geometry":{"type":"LineString","coordinates":[[-81.726646,35.219092],[-81.72552,35.218819],[-81.725139,35.218582]]},"properties":{"stream_order":6,"shape_length":0.001607231111096413}},{"type":"Feature","id":12035555,"geometry":{"type":"LineString","coordinates":[[-81.654272,35.201437],[-81.653211,35.201157],[-81.652932,35.200851],[-81.652275,35.200771],[-81.65156,35.200363]]},"properties":{"stream_order":6,"shape_length":0.0029958933621742545}},{"type":"Feature","id":12035535,"geometry":{"type":"LineString","coordinates":[[-81.748372,35.2185],[-81.748352,35.218473],[-81.74837,35.218501]]},"properties":{"stream_order":1,"shape_length":6.522215080591721e-05}},{"type":"Feature","id":12034455,"geometry":{"type":"LineString","coordinates":[[-81.690501,35.376662],[-81.690081,35.376043],[-81.690024,35.375127],[-81.689772,35.374234],[-81.68938,35.373845],[-81.689072,35.373364],[-81.688792,35.371876],[-81.688623,35.371487],[-81.688231,35.371052],[-81.687671,35.369678],[-81.687139,35.369014],[-81.686804,35.368877],[-81.68644,35.368602],[-81.686132,35.367961],[-81.68585,35.36535],[-81.68543,35.364572],[-81.685513,35.362762],[-81.686323,35.361502],[-81.686965,35.360884],[-81.687776,35.360265],[-81.687971,35.359898],[-81.68783,35.358845],[-81.688668,35.35786],[-81.688808,35.357493],[-81.688835,35.356806],[-81.688975,35.356302],[-81.68917,35.355958],[-81.689757,35.355477],[-81.690427,35.354309],[-81.691209,35.353781],[-81.691404,35.353254],[-81.691124,35.352957],[-81.690984,35.352247],[-81.690481,35.351881],[-81.690452,35.351606],[-81.690732,35.351194],[-81.690731,35.350736],[-81.690423,35.349865],[-81.690255,35.349407],[-81.690171,35.349362],[-81.690115,35.349018],[-81.689919,35.348629],[-81.689136,35.348171],[-81.688632,35.347759],[-81.688408,35.347416],[-81.688408,35.347095],[-81.688268,35.346821],[-81.687821,35.346409],[-81.687736,35.345951],[-81.687344,35.345172],[-81.686449,35.344279],[-81.686197,35.343776],[-81.685945,35.343089],[-81.685497,35.342104],[-81.68519,35.341875],[-81.684127,35.341509],[-81.683959,35.34128],[-81.683903,35.340021],[-81.684796,35.339173],[-81.684795,35.337936],[-81.684935,35.33773],[-81.685689,35.337203],[-81.6858,35.336081],[-81.685996,35.335645],[-81.686023,35.335256],[-81.685939,35.335141],[-81.685939,35.334729],[-81.686748,35.333286],[-81.68672,35.332805],[-81.686133,35.332233],[-81.686048,35.331568],[-81.685265,35.330836],[-81.685181,35.330538],[-81.684007,35.329921],[-81.683811,35.329646],[-81.68381,35.328684]]},"properties":{"stream_order":1,"shape_length":0.05754964469061136}},{"type":"Feature","id":12035767,"geometry":{"type":"LineString","coordinates":[[-81.691285,35.377989],[-81.690501,35.376662]]},"properties":{"stream_order":1,"shape_length":0.0015420389469671723}},{"type":"Feature","id":12034805,"geometry":{"type":"LineString","coordinates":[[-81.862473,35.163182],[-81.861329,35.163457],[-81.859684,35.164052],[-81.858958,35.164808],[-81.858122,35.165266],[-81.85695,35.166525],[-81.856392,35.166983],[-81.855834,35.167922],[-81.855053,35.168655],[-81.854467,35.16964],[-81.853881,35.170235],[-81.853268,35.171197],[-81.852403,35.171999],[-81.851705,35.172342],[-81.849725,35.172914],[-81.848832,35.173326],[-81.848191,35.173922],[-81.847856,35.174403],[-81.847828,35.174563],[-81.847744,35.174609],[-81.847102,35.176029],[-81.846656,35.176647],[-81.8466,35.17809],[-81.846125,35.178571],[-81.845874,35.178685],[-81.845539,35.178639],[-81.844368,35.178753],[-81.844033,35.178845],[-81.843586,35.179326],[-81.843391,35.179738],[-81.843419,35.18015],[-81.843753,35.180723],[-81.843837,35.181112],[-81.843725,35.181387],[-81.843558,35.181479],[-81.84261,35.181181],[-81.842191,35.181158]]},"properties":{"stream_order":1,"shape_length":0.030440829669699156}},{"type":"Feature","id":12035423,"geometry":{"type":"LineString","coordinates":[[-81.969727,35.258163],[-81.969169,35.257888],[-81.968861,35.257476],[-81.968775,35.255392],[-81.968913,35.254384],[-81.96894,35.25285],[-81.968744,35.252209],[-81.968407,35.250812],[-81.967968,35.250122],[-81.967604,35.249755],[-81.966627,35.249527],[-81.964198,35.249598],[-81.963723,35.249461],[-81.962439,35.248958],[-81.961265,35.24841],[-81.960455,35.24786],[-81.960036,35.247471],[-81.959617,35.246876],[-81.958972,35.244495],[-81.958943,35.243808],[-81.958775,35.243121],[-81.958523,35.242755],[-81.958216,35.242549],[-81.957825,35.242458],[-81.957295,35.242458],[-81.955537,35.243078]]},"properties":{"stream_order":6,"shape_length":0.025568903963456256}},{"type":"Feature","id":12035391,"geometry":{"type":"LineString","coordinates":[[-81.918982,35.286386],[-81.917417,35.284738],[-81.917249,35.28444],[-81.916774,35.283982],[-81.916104,35.283616],[-81.915852,35.283296],[-81.915629,35.282746],[-81.915321,35.281074],[-81.914957,35.280364],[-81.914259,35.279769],[-81.914007,35.279403],[-81.913784,35.278899],[-81.913141,35.278144],[-81.91152,35.276861],[-81.911213,35.276404],[-81.910794,35.275327],[-81.910234,35.272854],[-81.91029,35.272373],[-81.910485,35.271938],[-81.910541,35.271617],[-81.910122,35.271113],[-81.909898,35.27077],[-81.909898,35.270289],[-81.910205,35.269922],[-81.91216,35.269693],[-81.912467,35.269532],[-81.912662,35.269257],[-81.912662,35.26857],[-81.912913,35.267746],[-81.912912,35.267379],[-81.912549,35.267196],[-81.91213,35.266784],[-81.912102,35.266486],[-81.911767,35.266143],[-81.910175,35.265594],[-81.909142,35.26477],[-81.908471,35.264426],[-81.907354,35.26406],[-81.90579,35.263809],[-81.904869,35.263466],[-81.904617,35.263168],[-81.904589,35.261359],[-81.904198,35.260626],[-81.902913,35.259802],[-81.902494,35.259183],[-81.901349,35.258382],[-81.901181,35.258039],[-81.899897,35.256871],[-81.896797,35.255658],[-81.896267,35.255291],[-81.895429,35.255108],[-81.894843,35.254879],[-81.894479,35.254582],[-81.893418,35.253162],[-81.893139,35.252612],[-81.893139,35.252154],[-81.893027,35.251857],[-81.892804,35.251696],[-81.892189,35.251467],[-81.890179,35.25117],[-81.888141,35.250804],[-81.886885,35.250392],[-81.886474,35.250117],[-81.886251,35.249865],[-81.886251,35.249453],[-81.886948,35.24856],[-81.886948,35.248308],[-81.886865,35.248262],[-81.886697,35.24785],[-81.885301,35.246315],[-81.884128,35.245903],[-81.883961,35.245766],[-81.883905,35.245216],[-81.884407,35.244529],[-81.884435,35.244094],[-81.883625,35.243293],[-81.883207,35.242743],[-81.882788,35.241735],[-81.882369,35.239674],[-81.882257,35.239468],[-81.881726,35.238987],[-81.88128,35.238025],[-81.881056,35.237865],[-81.880665,35.237796],[-81.880386,35.237613],[-81.880107,35.237041],[-81.879437,35.236377],[-81.879186,35.236262],[-81.877818,35.236033],[-81.877539,35.235873],[-81.877427,35.235598],[-81.877287,35.234522],[-81.877315,35.232713],[-81.877566,35.231888],[-81.878152,35.231041],[-81.87818,35.230468],[-81.877538,35.230148],[-81.877036,35.22969],[-81.876561,35.228957],[-81.87631,35.228338],[-81.875361,35.227468],[-81.874831,35.226369],[-81.873798,35.224972],[-81.873044,35.223552],[-81.872849,35.223231],[-81.872709,35.222682],[-81.872961,35.22188],[-81.874105,35.219475],[-81.87483,35.218491],[-81.875974,35.217277],[-81.877118,35.216383],[-81.8779,35.215948],[-81.878318,35.215513],[-81.878709,35.213979],[-81.879239,35.212284],[-81.879936,35.210887],[-81.880104,35.210337],[-81.881024,35.208276],[-81.881052,35.207405],[-81.881526,35.206421],[-81.881554,35.205596],[-81.88147,35.20555],[-81.88147,35.20539],[-81.881191,35.204818],[-81.880633,35.203947],[-81.880382,35.202985],[-81.880103,35.202527],[-81.878987,35.201543],[-81.878931,35.201405],[-81.878819,35.200375],[-81.878931,35.200169],[-81.878958,35.19939],[-81.879042,35.19923]]},"properties":{"stream_order":1,"shape_length":0.12092274153049443}}]}