{"type":"FeatureCollection","features":[{"type":"Feature","id":12035405,"geometry":{"type":"LineString","coordinates":[[-81.745102,35.3132],[-81.74552,35.312787],[-81.746023,35.31242],[-81.747195,35.311961],[-81.747502,35.311457],[-81.747946,35.309716],[-81.747945,35.308891],[-81.747692,35.307998],[-81.746712,35.306373],[-81.745757,35.303099],[-81.745449,35.302618],[-81.743882,35.30104],[-81.743686,35.300651],[-81.743658,35.300193],[-81.744659,35.297237],[-81.744743,35.297191],[-81.744741,35.296367],[-81.744658,35.296321],[-81.744629,35.296046],[-81.744321,35.295657],[-81.744152,35.294237],[-81.743871,35.293344],[-81.743842,35.292314],[-81.744092,35.291833],[-81.744259,35.291168],[-81.744118,35.290596],[-81.743419,35.289681],[-81.742496,35.288903],[-81.74202,35.288239],[-81.74202,35.287873],[-81.742494,35.287483],[-81.742381,35.286796],[-81.742297,35.28675],[-81.741708,35.284804],[-81.74151,35.283522],[-81.741256,35.281392],[-81.740779,35.279789],[-81.74022,35.279194],[-81.740079,35.278828],[-81.739856,35.278645],[-81.738678,35.2756],[-81.738119,35.275051],[-81.737474,35.273334],[-81.737279,35.273105],[-81.73549,35.272374],[-81.735071,35.272099],[-81.734819,35.271573],[-81.734008,35.271024],[-81.733924,35.270795],[-81.733561,35.270543],[-81.732779,35.270315],[-81.732499,35.270292],[-81.732136,35.27043],[-81.731439,35.27098],[-81.731048,35.271141],[-81.730099,35.271142],[-81.729764,35.271234],[-81.726861,35.272771],[-81.726247,35.272817],[-81.723873,35.272544],[-81.723509,35.272339],[-81.723592,35.271216],[-81.724261,35.270116],[-81.724399,35.268994],[-81.724426,35.268032],[-81.724314,35.267757],[-81.723978,35.267368],[-81.723838,35.267071],[-81.723809,35.266223],[-81.723725,35.26604],[-81.723082,35.265514],[-81.722859,35.265216],[-81.722802,35.264758],[-81.723973,35.263383],[-81.724168,35.262765],[-81.724111,35.261871],[-81.723776,35.261482],[-81.723412,35.261414],[-81.722798,35.261621],[-81.722212,35.261713],[-81.722044,35.261575],[-81.722044,35.261392],[-81.722714,35.26075],[-81.722797,35.260521],[-81.723076,35.260292],[-81.724109,35.259925],[-81.724415,35.259581],[-81.724415,35.259054],[-81.724247,35.258756],[-81.724022,35.257314],[-81.724104,35.25571],[-81.723992,35.25539],[-81.723349,35.255093],[-81.720668,35.254248],[-81.720276,35.253927],[-81.719857,35.253355],[-81.719159,35.253149],[-81.718768,35.252944],[-81.718516,35.252646],[-81.717147,35.251937],[-81.716588,35.251502],[-81.716169,35.251022],[-81.715861,35.250747],[-81.71547,35.250633],[-81.714744,35.250611],[-81.714024,35.250137],[-81.713046,35.249337],[-81.713018,35.249153],[-81.712932,35.247504],[-81.71282,35.247161],[-81.712819,35.246566],[-81.713126,35.246245],[-81.713209,35.245764],[-81.712371,35.245398],[-81.712343,35.245009],[-81.712929,35.244344],[-81.713152,35.243954],[-81.713151,35.243473],[-81.712508,35.242924],[-81.712033,35.24281],[-81.711782,35.242673],[-81.711698,35.242146],[-81.711781,35.24194],[-81.712478,35.241092],[-81.712506,35.240565],[-81.712366,35.240451],[-81.710774,35.239994],[-81.710634,35.239834],[-81.710578,35.239467],[-81.710773,35.238963],[-81.710772,35.238299],[-81.710632,35.238116],[-81.70946,35.238003],[-81.708902,35.237843],[-81.70851,35.237499],[-81.708509,35.236629],[-81.708397,35.236354],[-81.707839,35.235782],[-81.707587,35.23537],[-81.707027,35.234203],[-81.706467,35.232577],[-81.706438,35.231523],[-81.706578,35.231386],[-81.707304,35.231385],[-81.707499,35.231316],[-81.707471,35.23095],[-81.707163,35.23063],[-81.704203,35.228708],[-81.703867,35.228388],[-81.703671,35.227632],[-81.703448,35.227357],[-81.703196,35.227243],[-81.702833,35.227335],[-81.702332,35.227908]]},"properties":{"stream_order":1,"shape_length":0.12741519184524627}},{"type":"Feature","id":12035515,"geometry":{"type":"LineString","coordinates":[[-81.694812,35.215408],[-81.694673,35.215295],[-81.694441,35.215157]]},"properties":{"stream_order":3,"shape_length":0.00044912992764946976}},{"type":"Feature","id":12034577,"geometry":{"type":"LineString","coordinates":[[-81.681962,35.283612],[-81.682185,35.283314],[-81.682212,35.282352],[-81.682128,35.281963],[-81.682072,35.280657],[-81.682155,35.280428],[-81.682378,35.280268],[-81.683272,35.280153],[-81.684166,35.2799],[-81.684557,35.279625],[-81.684808,35.279305],[-81.684835,35.278732],[-81.68517,35.278182],[-81.686928,35.276555],[-81.687347,35.275776],[-81.687569,35.274837],[-81.68796,35.274333],[-81.687931,35.27344],[-81.687819,35.273279],[-81.687233,35.272959],[-81.686981,35.272662],[-81.686925,35.272089],[-81.686785,35.271883],[-81.686757,35.271585],[-81.686896,35.271333],[-81.687315,35.271264],[-81.687986,35.27163],[-81.688544,35.271767],[-81.688796,35.27163],[-81.688795,35.271286],[-81.687929,35.270256],[-81.687873,35.269913],[-81.688068,35.269684],[-81.688822,35.2695],[-81.689939,35.269637],[-81.690162,35.269522],[-81.69058,35.268629],[-81.690636,35.268148],[-81.689462,35.267003],[-81.689266,35.266431],[-81.689434,35.266247],[-81.690132,35.266064],[-81.690662,35.265743],[-81.692337,35.265765],[-81.692896,35.26549],[-81.692951,35.265192],[-81.692811,35.264803],[-81.692476,35.264413],[-81.692029,35.263681],[-81.692,35.263406],[-81.692196,35.263223],[-81.692363,35.263177],[-81.69415,35.263336],[-81.695658,35.263037],[-81.696384,35.262991]]},"properties":{"stream_order":3,"shape_length":0.03694121567992944}},{"type":"Feature","id":12035407,"geometry":{"type":"LineString","coordinates":[[-81.696384,35.262991],[-81.697528,35.262464],[-81.699175,35.26189],[-81.700152,35.261179],[-81.700236,35.260996],[-81.700152,35.260698],[-81.699789,35.260492],[-81.69909,35.260333],[-81.698587,35.260035],[-81.698392,35.260035],[-81.697806,35.260425],[-81.697136,35.260517],[-81.696745,35.260219],[-81.696632,35.259533],[-81.696744,35.259326],[-81.697441,35.258753],[-81.697581,35.258478],[-81.697525,35.258226],[-81.697301,35.258112],[-81.696296,35.257884],[-81.696016,35.257655],[-81.695821,35.257357],[-81.695765,35.25706],[-81.696406,35.256349],[-81.696992,35.255387],[-81.696991,35.255135],[-81.696321,35.254838],[-81.6954,35.254655],[-81.693194,35.254519],[-81.692858,35.254313],[-81.69283,35.253946],[-81.693277,35.25358],[-81.6935,35.253259],[-81.694421,35.252663],[-81.694448,35.252365],[-81.694001,35.251999],[-81.693275,35.251862],[-81.690818,35.251795],[-81.69012,35.251497],[-81.690008,35.251245],[-81.68998,35.250444],[-81.689901,35.250131],[-81.690152,35.249513],[-81.690794,35.248917],[-81.691129,35.248825],[-81.692553,35.248778],[-81.692999,35.248709],[-81.693641,35.24848],[-81.694171,35.247953],[-81.694227,35.247609],[-81.693919,35.247128],[-81.693807,35.24651],[-81.69269,35.246305],[-81.692522,35.246213],[-81.692522,35.246053],[-81.693694,35.245434],[-81.694085,35.244998],[-81.694112,35.244449],[-81.693889,35.244197],[-81.693358,35.2439],[-81.692883,35.243877],[-81.692074,35.244175],[-81.691013,35.243855],[-81.690762,35.243672],[-81.690733,35.243237],[-81.690845,35.242825],[-81.691347,35.242298],[-81.691542,35.241954],[-81.691569,35.241473],[-81.691374,35.241175],[-81.691345,35.240534],[-81.691512,35.240099],[-81.692349,35.238885],[-81.692711,35.238678],[-81.693605,35.238563],[-81.694637,35.238196],[-81.695977,35.237989],[-81.696535,35.237737],[-81.696758,35.237553],[-81.696897,35.237256],[-81.696814,35.237072],[-81.69645,35.236844],[-81.693937,35.235815],[-81.693546,35.235517],[-81.693378,35.235197],[-81.693406,35.234601],[-81.693712,35.233937],[-81.694075,35.233478],[-81.694326,35.233318],[-81.695721,35.23279],[-81.69586,35.232447],[-81.695748,35.232172],[-81.695497,35.23192],[-81.695496,35.231554],[-81.695859,35.231095],[-81.696222,35.230912],[-81.699738,35.23036],[-81.700966,35.230062],[-81.701775,35.22974],[-81.702389,35.229167],[-81.702584,35.228732],[-81.702583,35.228228],[-81.702332,35.227908]]},"properties":{"stream_order":3,"shape_length":0.07148924416995707}},{"type":"Feature","id":12035779,"geometry":{"type":"LineString","coordinates":[[-81.744153,35.314117],[-81.745102,35.3132]]},"properties":{"stream_order":1,"shape_length":0.001319506650242893}},{"type":"Feature","id":12034579,"geometry":{"type":"LineString","coordinates":[[-81.712998,35.288516],[-81.712859,35.288516],[-81.71216,35.288105],[-81.711685,35.287945],[-81.711322,35.287922],[-81.710763,35.288106],[-81.710149,35.288198],[-81.709562,35.287878],[-81.70878,35.287741],[-81.707746,35.287009],[-81.706908,35.286918],[-81.706544,35.286803],[-81.705929,35.286346],[-81.705845,35.28575],[-81.705593,35.285453],[-81.70305,35.284218],[-81.702771,35.283966],[-81.702798,35.2836],[-81.702993,35.282935],[-81.702993,35.282386],[-81.702657,35.282065],[-81.702572,35.281012],[-81.702376,35.280279],[-81.701789,35.279684],[-81.701733,35.278814],[-81.701621,35.278631],[-81.701174,35.278356],[-81.699581,35.277739],[-81.699218,35.277441],[-81.699078,35.27696],[-81.698575,35.276686],[-81.697625,35.27648],[-81.697429,35.276274],[-81.697289,35.275816],[-81.6974,35.27545],[-81.697344,35.274969],[-81.698404,35.273182],[-81.698487,35.272746],[-81.698292,35.272426],[-81.697649,35.271991],[-81.696894,35.271488],[-81.696782,35.271282],[-81.696754,35.270434],[-81.696446,35.270045],[-81.696278,35.269083],[-81.69597,35.268854],[-81.695049,35.268672],[-81.694685,35.268397],[-81.694322,35.267687],[-81.694265,35.267229],[-81.694321,35.267046],[-81.694684,35.266725],[-81.695857,35.266541],[-81.696247,35.266312],[-81.696415,35.266106],[-81.696415,35.265831],[-81.696303,35.265625],[-81.695772,35.26519],[-81.695604,35.264847],[-81.695185,35.264664],[-81.694933,35.264458],[-81.694933,35.26432],[-81.695045,35.264206],[-81.696189,35.263655],[-81.696357,35.263403],[-81.696384,35.262991]]},"properties":{"stream_order":1,"shape_length":0.04152534862045922}},{"type":"Feature","id":12034683,"geometry":{"type":"LineString","coordinates":[[-81.702332,35.227908],[-81.699764,35.227841],[-81.697167,35.227247],[-81.696581,35.226973],[-81.696385,35.226744],[-81.696385,35.2264],[-81.696608,35.226011],[-81.696636,35.225713],[-81.696272,35.225141],[-81.695071,35.224248],[-81.694764,35.223928],[-81.694652,35.223584],[-81.694373,35.223218],[-81.694065,35.223058],[-81.693507,35.222417],[-81.69345,35.221799],[-81.693729,35.221272],[-81.694371,35.221157],[-81.694762,35.221271],[-81.695208,35.221637],[-81.696018,35.221911],[-81.696297,35.222117],[-81.696605,35.222506],[-81.697303,35.223033],[-81.698029,35.223261],[-81.698894,35.223077],[-81.69934,35.222894],[-81.700736,35.222801],[-81.702605,35.222159],[-81.702968,35.22193],[-81.702967,35.221609],[-81.702521,35.221449],[-81.701376,35.22074],[-81.700956,35.220007],[-81.700677,35.219778],[-81.700147,35.219618],[-81.698137,35.219688],[-81.697328,35.219643],[-81.696546,35.219438],[-81.696211,35.219071],[-81.696126,35.217995],[-81.695651,35.217331],[-81.695566,35.21614],[-81.694812,35.215408]]},"properties":{"stream_order":3,"shape_length":0.03543558751332568}},{"type":"Feature","id":12034547,"geometry":{"type":"LineString","coordinates":[[-81.663652,35.309821],[-81.663903,35.3095],[-81.66407,35.30895],[-81.664741,35.308469],[-81.664741,35.308057],[-81.664601,35.307736],[-81.664572,35.307118],[-81.66474,35.306293],[-81.664991,35.305744],[-81.665019,35.305263],[-81.664851,35.304919],[-81.664851,35.304415],[-81.665018,35.30382],[-81.664543,35.303293],[-81.664403,35.303018],[-81.664403,35.302789],[-81.664654,35.302125],[-81.664654,35.301507],[-81.664262,35.300934],[-81.664262,35.300385],[-81.664652,35.299033],[-81.664708,35.298186],[-81.664596,35.297957],[-81.664707,35.297659],[-81.664651,35.296926],[-81.664399,35.295277],[-81.664873,35.294338],[-81.664873,35.293834],[-81.664789,35.29372],[-81.664733,35.293193],[-81.664817,35.292918],[-81.665291,35.292437],[-81.665543,35.292047],[-81.666464,35.291337],[-81.666771,35.290902],[-81.667246,35.290421],[-81.66772,35.289619],[-81.668055,35.289344],[-81.668921,35.288954],[-81.670401,35.288793],[-81.671491,35.288976],[-81.673502,35.289731],[-81.673698,35.289662],[-81.674089,35.289273],[-81.67515,35.288791],[-81.675708,35.28815],[-81.676099,35.288058],[-81.676462,35.287829],[-81.676546,35.287439],[-81.676098,35.286959],[-81.675986,35.28618],[-81.676182,35.285836],[-81.677019,35.285217],[-81.677186,35.28437],[-81.677744,35.283728],[-81.678247,35.283637],[-81.679085,35.283796],[-81.680202,35.28359],[-81.680845,35.283704],[-81.68118,35.283589],[-81.681962,35.283612]]},"properties":{"stream_order":1,"shape_length":0.04164154812961191}},{"type":"Feature","id":12034545,"geometry":{"type":"LineString","coordinates":[[-81.694866,35.316218],[-81.694978,35.315806],[-81.695005,35.315371],[-81.694893,35.31505],[-81.694027,35.314501],[-81.693803,35.314272],[-81.693774,35.3137],[-81.693131,35.313082],[-81.693103,35.312761],[-81.693242,35.311822],[-81.692598,35.310769],[-81.692347,35.310563],[-81.6919,35.310472],[-81.69095,35.311182],[-81.689637,35.311229],[-81.689469,35.311046],[-81.689385,35.310244],[-81.688826,35.309786],[-81.688742,35.309443],[-81.688825,35.309305],[-81.689635,35.30887],[-81.689747,35.308686],[-81.689802,35.308412],[-81.689635,35.308229],[-81.688712,35.307771],[-81.688069,35.307245],[-81.687929,35.30697],[-81.687203,35.306421],[-81.687063,35.306146],[-81.687006,35.305711],[-81.686838,35.305207],[-81.686391,35.304932],[-81.685525,35.304635],[-81.68491,35.304269],[-81.684658,35.303857],[-81.684546,35.303353],[-81.685216,35.30278],[-81.685439,35.302459],[-81.685439,35.302207],[-81.685104,35.302024],[-81.684852,35.301681],[-81.684098,35.301292],[-81.683846,35.300811],[-81.68256,35.300216],[-81.682169,35.299781],[-81.682168,35.299346],[-81.682587,35.29875],[-81.683592,35.297765],[-81.68362,35.297032],[-81.682893,35.296323],[-81.682725,35.296048],[-81.682697,35.29559],[-81.682836,35.295315],[-81.68373,35.294467],[-81.683785,35.294032],[-81.684036,35.293597],[-81.684008,35.293345],[-81.683309,35.29291],[-81.683225,35.292223],[-81.683532,35.291925],[-81.684035,35.291673],[-81.68437,35.291329],[-81.684425,35.290779],[-81.684341,35.290711],[-81.684201,35.290023],[-81.684396,35.289588],[-81.684396,35.289268],[-81.684033,35.289062],[-81.682078,35.289223],[-81.681379,35.289086],[-81.680988,35.288903],[-81.680429,35.288354],[-81.679954,35.288125],[-81.679619,35.287827],[-81.679618,35.287255],[-81.67973,35.286819],[-81.681906,35.284001],[-81.681962,35.283612]]},"properties":{"stream_order":3,"shape_length":0.05023340623150958}},{"type":"Feature","id":12035783,"geometry":{"type":"LineString","coordinates":[[-81.715038,35.288996],[-81.712998,35.288516]]},"properties":{"stream_order":1,"shape_length":0.0020953279732262705}}]}