{
"type": "FeatureCollection",
"name": "huc_03050105_single_reach",
"crs": { "type": "name", "properties": { "name": "urn:ogc:def:crs:OGC:1.3:CRS84" } },
"features": [
{ "type": "Feature", "properties": { "stream_order": 1, "shape_length": 0.041525348620459222 }, "geometry": { "type": "LineString", "coordinates": [ [ -81.712998, 35.288516 ], [ -81.712859, 35.288516 ], [ -81.71216, 35.288105 ], [ -81.711685, 35.287945 ], [ -81.711322, 35.287922 ], [ -81.710763, 35.288106 ], [ -81.710149, 35.288198 ], [ -81.709562, 35.287878 ], [ -81.70878, 35.287741 ], [ -81.707746, 35.287009 ], [ -81.706908, 35.286918 ], [ -81.706544, 35.286803 ], [ -81.705929, 35.286346 ], [ -81.705845, 35.28575 ], [ -81.705593, 35.285453 ], [ -81.70305, 35.284218 ], [ -81.702771, 35.283966 ], [ -81.702798, 35.2836 ], [ -81.702993, 35.282935 ], [ -81.702993, 35.282386 ], [ -81.702657, 35.282065 ], [ -81.702572, 35.281012 ], [ -81.702376, 35.280279 ], [ -81.701789, 35.279684 ], [ -81.701733, 35.278814 ], [ -81.701621, 35.278631 ], [ -81.701174, 35.278356 ], [ -81.699581, 35.277739 ], [ -81.699218, 35.277441 ], [ -81.699078, 35.27696 ], [ -81.698575, 35.276686 ], [ -81.697625, 35.27648 ], [ -81.697429, 35.276274 ], [ -81.697289, 35.275816 ], [ -81.6974, 35.27545 ], [ -81.697344, 35.274969 ], [ -81.698404, 35.273182 ], [ -81.698487, 35.272746 ], [ -81.698292, 35.272426 ], [ -81.697649, 35.271991 ], [ -81.696894, 35.271488 ], [ -81.696782, 35.271282 ], [ -81.696754, 35.270434 ], [ -81.696446, 35.270045 ], [ -81.696278, 35.269083 ], [ -81.69597, 35.268854 ], [ -81.695049, 35.268672 ], [ -81.694685, 35.268397 ], [ -81.694322, 35.267687 ], [ -81.694265, 35.267229 ], [ -81.694321, 35.267046 ], [ -81.694684, 35.266725 ], [ -81.695857, 35.266541 ], [ -81.696247, 35.266312 ], [ -81.696415, 35.266106 ], [ -81.696415, 35.265831 ], [ -81.696303, 35.265625 ], [ -81.695772, 35.26519 ], [ -81.695604, 35.264847 ], [ -81.695185, 35.264664 ], [ -81.694933, 35.264458 ], [ -81.694933, 35.26432 ], [ -81.695045, 35.264206 ], [ -81.696189, 35.263655 ], [ -81.696357, 35.263403 ], [ -81.696384, 35.262991 ] ] } }
]
}
